<?xml version="1.0" encoding="UTF-8"?>
<gpx xmlns="http://www.topografix.com/GPX/1/1" version="1.1" creator="France Vélo Tourisme">
  <metadata>
    <name>Groslée à La Balme-les-Grottes</name>
  </metadata>
  <trk>
    <name>Groslée à La Balme-les-Grottes</name>
    <trkseg>
      <trkpt lat="45.712112" lon="5.550971">
        <ele>205.6</ele>
      </trkpt>
      <trkpt lat="45.712468" lon="5.550583">
        <ele>206.7</ele>
      </trkpt>
      <trkpt lat="45.712786" lon="5.549551">
        <ele>204.6</ele>
      </trkpt>
      <trkpt lat="45.712845" lon="5.549290">
        <ele>205.0</ele>
      </trkpt>
      <trkpt lat="45.713016" lon="5.548725">
        <ele>206.0</ele>
      </trkpt>
      <trkpt lat="45.713129" lon="5.548803">
        <ele>207.4</ele>
      </trkpt>
      <trkpt lat="45.713216" lon="5.548925">
        <ele>208.4</ele>
      </trkpt>
      <trkpt lat="45.713306" lon="5.549023">
        <ele>209.6</ele>
      </trkpt>
      <trkpt lat="45.713292" lon="5.549098">
        <ele>210.9</ele>
      </trkpt>
      <trkpt lat="45.713271" lon="5.549125">
        <ele>209.4</ele>
      </trkpt>
      <trkpt lat="45.713234" lon="5.549208">
        <ele>208.1</ele>
      </trkpt>
      <trkpt lat="45.713082" lon="5.549096">
        <ele>206.8</ele>
      </trkpt>
      <trkpt lat="45.712490" lon="5.548651">
        <ele>205.5</ele>
      </trkpt>
      <trkpt lat="45.712309" lon="5.548517">
        <ele>203.3</ele>
      </trkpt>
      <trkpt lat="45.712185" lon="5.548426">
        <ele>204.0</ele>
      </trkpt>
      <trkpt lat="45.712174" lon="5.548418">
        <ele>204.7</ele>
      </trkpt>
      <trkpt lat="45.711045" lon="5.547609">
        <ele>205.4</ele>
      </trkpt>
      <trkpt lat="45.710724" lon="5.547324">
        <ele>205.9</ele>
      </trkpt>
      <trkpt lat="45.710545" lon="5.547165">
        <ele>206.9</ele>
      </trkpt>
      <trkpt lat="45.710414" lon="5.546903">
        <ele>207.0</ele>
      </trkpt>
      <trkpt lat="45.710669" lon="5.547126">
        <ele>207.4</ele>
      </trkpt>
      <trkpt lat="45.710857" lon="5.547267">
        <ele>207.7</ele>
      </trkpt>
      <trkpt lat="45.710867" lon="5.547268">
        <ele>208.7</ele>
      </trkpt>
      <trkpt lat="45.711059" lon="5.547301">
        <ele>209.0</ele>
      </trkpt>
      <trkpt lat="45.711258" lon="5.547293">
        <ele>209.4</ele>
      </trkpt>
      <trkpt lat="45.711367" lon="5.547075">
        <ele>208.9</ele>
      </trkpt>
      <trkpt lat="45.711892" lon="5.546021">
        <ele>208.3</ele>
      </trkpt>
      <trkpt lat="45.712583" lon="5.544636">
        <ele>207.3</ele>
      </trkpt>
      <trkpt lat="45.712669" lon="5.544306">
        <ele>206.4</ele>
      </trkpt>
      <trkpt lat="45.712676" lon="5.544277">
        <ele>205.3</ele>
      </trkpt>
      <trkpt lat="45.712719" lon="5.544112">
        <ele>205.2</ele>
      </trkpt>
      <trkpt lat="45.712863" lon="5.542816">
        <ele>205.2</ele>
      </trkpt>
      <trkpt lat="45.713041" lon="5.541318">
        <ele>205.1</ele>
      </trkpt>
      <trkpt lat="45.713042" lon="5.540739">
        <ele>205.3</ele>
      </trkpt>
      <trkpt lat="45.713044" lon="5.539901">
        <ele>206.1</ele>
      </trkpt>
      <trkpt lat="45.713085" lon="5.538417">
        <ele>206.1</ele>
      </trkpt>
      <trkpt lat="45.712995" lon="5.537038">
        <ele>206.2</ele>
      </trkpt>
      <trkpt lat="45.712898" lon="5.534891">
        <ele>206.3</ele>
      </trkpt>
      <trkpt lat="45.712888" lon="5.534279">
        <ele>206.7</ele>
      </trkpt>
      <trkpt lat="45.712885" lon="5.534134">
        <ele>206.3</ele>
      </trkpt>
      <trkpt lat="45.711025" lon="5.533120">
        <ele>206.5</ele>
      </trkpt>
      <trkpt lat="45.710432" lon="5.532887">
        <ele>206.6</ele>
      </trkpt>
      <trkpt lat="45.710636" lon="5.532317">
        <ele>206.6</ele>
      </trkpt>
      <trkpt lat="45.710846" lon="5.531886">
        <ele>206.3</ele>
      </trkpt>
      <trkpt lat="45.711098" lon="5.531387">
        <ele>206.1</ele>
      </trkpt>
      <trkpt lat="45.711329" lon="5.531009">
        <ele>206.2</ele>
      </trkpt>
      <trkpt lat="45.711519" lon="5.530680">
        <ele>206.3</ele>
      </trkpt>
      <trkpt lat="45.711591" lon="5.530430">
        <ele>206.2</ele>
      </trkpt>
      <trkpt lat="45.711688" lon="5.529950">
        <ele>206.0</ele>
      </trkpt>
      <trkpt lat="45.711752" lon="5.529539">
        <ele>205.9</ele>
      </trkpt>
      <trkpt lat="45.711840" lon="5.529086">
        <ele>205.6</ele>
      </trkpt>
      <trkpt lat="45.711867" lon="5.528889">
        <ele>205.5</ele>
      </trkpt>
      <trkpt lat="45.711887" lon="5.528708">
        <ele>205.5</ele>
      </trkpt>
      <trkpt lat="45.711821" lon="5.528585">
        <ele>206.0</ele>
      </trkpt>
      <trkpt lat="45.711663" lon="5.528426">
        <ele>206.3</ele>
      </trkpt>
      <trkpt lat="45.710644" lon="5.527607">
        <ele>206.5</ele>
      </trkpt>
      <trkpt lat="45.710541" lon="5.527501">
        <ele>207.2</ele>
      </trkpt>
      <trkpt lat="45.710498" lon="5.527402">
        <ele>208.0</ele>
      </trkpt>
      <trkpt lat="45.710417" lon="5.527364">
        <ele>208.9</ele>
      </trkpt>
      <trkpt lat="45.710364" lon="5.527339">
        <ele>209.4</ele>
      </trkpt>
      <trkpt lat="45.710106" lon="5.527256">
        <ele>209.9</ele>
      </trkpt>
      <trkpt lat="45.709901" lon="5.527229">
        <ele>210.0</ele>
      </trkpt>
      <trkpt lat="45.709602" lon="5.527206">
        <ele>209.9</ele>
      </trkpt>
      <trkpt lat="45.709323" lon="5.527163">
        <ele>209.6</ele>
      </trkpt>
      <trkpt lat="45.709086" lon="5.527140">
        <ele>209.7</ele>
      </trkpt>
      <trkpt lat="45.708849" lon="5.527102">
        <ele>209.8</ele>
      </trkpt>
      <trkpt lat="45.708708" lon="5.527464">
        <ele>209.9</ele>
      </trkpt>
      <trkpt lat="45.708621" lon="5.527636">
        <ele>210.2</ele>
      </trkpt>
      <trkpt lat="45.708518" lon="5.527680">
        <ele>210.3</ele>
      </trkpt>
      <trkpt lat="45.708356" lon="5.527612">
        <ele>211.5</ele>
      </trkpt>
      <trkpt lat="45.707795" lon="5.527331">
        <ele>213.2</ele>
      </trkpt>
      <trkpt lat="45.707307" lon="5.527164">
        <ele>214.8</ele>
      </trkpt>
      <trkpt lat="45.707017" lon="5.527100">
        <ele>216.3</ele>
      </trkpt>
      <trkpt lat="45.706729" lon="5.527029">
        <ele>216.3</ele>
      </trkpt>
      <trkpt lat="45.706404" lon="5.526999">
        <ele>215.2</ele>
      </trkpt>
      <trkpt lat="45.705992" lon="5.526921">
        <ele>213.7</ele>
      </trkpt>
      <trkpt lat="45.705724" lon="5.526891">
        <ele>212.2</ele>
      </trkpt>
      <trkpt lat="45.705471" lon="5.526940">
        <ele>211.0</ele>
      </trkpt>
      <trkpt lat="45.705178" lon="5.526987">
        <ele>211.2</ele>
      </trkpt>
      <trkpt lat="45.704921" lon="5.527008">
        <ele>211.9</ele>
      </trkpt>
      <trkpt lat="45.704578" lon="5.527040">
        <ele>213.4</ele>
      </trkpt>
      <trkpt lat="45.704175" lon="5.527060">
        <ele>213.5</ele>
      </trkpt>
      <trkpt lat="45.703824" lon="5.527101">
        <ele>212.7</ele>
      </trkpt>
      <trkpt lat="45.703657" lon="5.527211">
        <ele>212.5</ele>
      </trkpt>
      <trkpt lat="45.703436" lon="5.527367">
        <ele>212.8</ele>
      </trkpt>
      <trkpt lat="45.703093" lon="5.527698">
        <ele>212.6</ele>
      </trkpt>
      <trkpt lat="45.702754" lon="5.528019">
        <ele>212.3</ele>
      </trkpt>
      <trkpt lat="45.702489" lon="5.528284">
        <ele>212.4</ele>
      </trkpt>
      <trkpt lat="45.702249" lon="5.528409">
        <ele>211.9</ele>
      </trkpt>
      <trkpt lat="45.701996" lon="5.528493">
        <ele>211.0</ele>
      </trkpt>
      <trkpt lat="45.701711" lon="5.528631">
        <ele>209.5</ele>
      </trkpt>
      <trkpt lat="45.701401" lon="5.528805">
        <ele>208.9</ele>
      </trkpt>
      <trkpt lat="45.701095" lon="5.528914">
        <ele>208.7</ele>
      </trkpt>
      <trkpt lat="45.700968" lon="5.528844">
        <ele>208.5</ele>
      </trkpt>
      <trkpt lat="45.700910" lon="5.528629">
        <ele>207.7</ele>
      </trkpt>
      <trkpt lat="45.700870" lon="5.528487">
        <ele>207.3</ele>
      </trkpt>
      <trkpt lat="45.700731" lon="5.528372">
        <ele>207.6</ele>
      </trkpt>
      <trkpt lat="45.700635" lon="5.528217">
        <ele>209.4</ele>
      </trkpt>
      <trkpt lat="45.699090" lon="5.525421">
        <ele>211.6</ele>
      </trkpt>
      <trkpt lat="45.699102" lon="5.524843">
        <ele>213.2</ele>
      </trkpt>
      <trkpt lat="45.699099" lon="5.524351">
        <ele>215.0</ele>
      </trkpt>
      <trkpt lat="45.699097" lon="5.523790">
        <ele>218.5</ele>
      </trkpt>
      <trkpt lat="45.699067" lon="5.523395">
        <ele>220.5</ele>
      </trkpt>
      <trkpt lat="45.699019" lon="5.523041">
        <ele>221.3</ele>
      </trkpt>
      <trkpt lat="45.698955" lon="5.522748">
        <ele>222.2</ele>
      </trkpt>
      <trkpt lat="45.698903" lon="5.522553">
        <ele>221.1</ele>
      </trkpt>
      <trkpt lat="45.698833" lon="5.522412">
        <ele>218.9</ele>
      </trkpt>
      <trkpt lat="45.698736" lon="5.522348">
        <ele>217.3</ele>
      </trkpt>
      <trkpt lat="45.698652" lon="5.522286">
        <ele>215.9</ele>
      </trkpt>
      <trkpt lat="45.698469" lon="5.522390">
        <ele>215.3</ele>
      </trkpt>
      <trkpt lat="45.698104" lon="5.522284">
        <ele>216.7</ele>
      </trkpt>
      <trkpt lat="45.697825" lon="5.522188">
        <ele>216.7</ele>
      </trkpt>
      <trkpt lat="45.697587" lon="5.522026">
        <ele>215.7</ele>
      </trkpt>
      <trkpt lat="45.697245" lon="5.521751">
        <ele>217.2</ele>
      </trkpt>
      <trkpt lat="45.696461" lon="5.521008">
        <ele>216.4</ele>
      </trkpt>
      <trkpt lat="45.696287" lon="5.522163">
        <ele>215.9</ele>
      </trkpt>
      <trkpt lat="45.695849" lon="5.521465">
        <ele>215.2</ele>
      </trkpt>
      <trkpt lat="45.694569" lon="5.519396">
        <ele>214.3</ele>
      </trkpt>
      <trkpt lat="45.693830" lon="5.518195">
        <ele>211.4</ele>
      </trkpt>
      <trkpt lat="45.692999" lon="5.517430">
        <ele>210.4</ele>
      </trkpt>
      <trkpt lat="45.692057" lon="5.516664">
        <ele>208.8</ele>
      </trkpt>
      <trkpt lat="45.691853" lon="5.516519">
        <ele>208.0</ele>
      </trkpt>
      <trkpt lat="45.691148" lon="5.515984">
        <ele>207.6</ele>
      </trkpt>
      <trkpt lat="45.690806" lon="5.512632">
        <ele>207.7</ele>
      </trkpt>
      <trkpt lat="45.691482" lon="5.512474">
        <ele>207.8</ele>
      </trkpt>
      <trkpt lat="45.691740" lon="5.511591">
        <ele>207.8</ele>
      </trkpt>
      <trkpt lat="45.691840" lon="5.510967">
        <ele>207.8</ele>
      </trkpt>
      <trkpt lat="45.691929" lon="5.510553">
        <ele>207.5</ele>
      </trkpt>
      <trkpt lat="45.692035" lon="5.510267">
        <ele>207.1</ele>
      </trkpt>
      <trkpt lat="45.692084" lon="5.510135">
        <ele>206.9</ele>
      </trkpt>
      <trkpt lat="45.692095" lon="5.510098">
        <ele>206.9</ele>
      </trkpt>
      <trkpt lat="45.692104" lon="5.510069">
        <ele>206.8</ele>
      </trkpt>
      <trkpt lat="45.692171" lon="5.509845">
        <ele>206.8</ele>
      </trkpt>
      <trkpt lat="45.692190" lon="5.509668">
        <ele>206.8</ele>
      </trkpt>
      <trkpt lat="45.692199" lon="5.509592">
        <ele>206.7</ele>
      </trkpt>
      <trkpt lat="45.692204" lon="5.509541">
        <ele>206.8</ele>
      </trkpt>
      <trkpt lat="45.692205" lon="5.509424">
        <ele>206.9</ele>
      </trkpt>
      <trkpt lat="45.692205" lon="5.509290">
        <ele>207.0</ele>
      </trkpt>
      <trkpt lat="45.692206" lon="5.508912">
        <ele>207.2</ele>
      </trkpt>
      <trkpt lat="45.692212" lon="5.508873">
        <ele>207.4</ele>
      </trkpt>
      <trkpt lat="45.692251" lon="5.508623">
        <ele>207.6</ele>
      </trkpt>
      <trkpt lat="45.692314" lon="5.508225">
        <ele>207.7</ele>
      </trkpt>
      <trkpt lat="45.692414" lon="5.507727">
        <ele>207.5</ele>
      </trkpt>
      <trkpt lat="45.692504" lon="5.507422">
        <ele>207.2</ele>
      </trkpt>
      <trkpt lat="45.692920" lon="5.507093">
        <ele>207.2</ele>
      </trkpt>
      <trkpt lat="45.693034" lon="5.506965">
        <ele>207.4</ele>
      </trkpt>
      <trkpt lat="45.692442" lon="5.506457">
        <ele>207.2</ele>
      </trkpt>
      <trkpt lat="45.692015" lon="5.506405">
        <ele>207.2</ele>
      </trkpt>
      <trkpt lat="45.691608" lon="5.506422">
        <ele>207.1</ele>
      </trkpt>
      <trkpt lat="45.689606" lon="5.506195">
        <ele>206.7</ele>
      </trkpt>
      <trkpt lat="45.689468" lon="5.504706">
        <ele>206.3</ele>
      </trkpt>
      <trkpt lat="45.688694" lon="5.504581">
        <ele>206.2</ele>
      </trkpt>
      <trkpt lat="45.687947" lon="5.503932">
        <ele>206.2</ele>
      </trkpt>
      <trkpt lat="45.687554" lon="5.503569">
        <ele>206.3</ele>
      </trkpt>
      <trkpt lat="45.687117" lon="5.503200">
        <ele>206.4</ele>
      </trkpt>
      <trkpt lat="45.685611" lon="5.502023">
        <ele>206.3</ele>
      </trkpt>
      <trkpt lat="45.685055" lon="5.501557">
        <ele>206.3</ele>
      </trkpt>
      <trkpt lat="45.684591" lon="5.501093">
        <ele>207.1</ele>
      </trkpt>
      <trkpt lat="45.683839" lon="5.500275">
        <ele>208.0</ele>
      </trkpt>
      <trkpt lat="45.683286" lon="5.499651">
        <ele>209.0</ele>
      </trkpt>
      <trkpt lat="45.682704" lon="5.498998">
        <ele>209.6</ele>
      </trkpt>
      <trkpt lat="45.682504" lon="5.498819">
        <ele>209.7</ele>
      </trkpt>
      <trkpt lat="45.682139" lon="5.498533">
        <ele>209.0</ele>
      </trkpt>
      <trkpt lat="45.681851" lon="5.498373">
        <ele>208.2</ele>
      </trkpt>
      <trkpt lat="45.681441" lon="5.498019">
        <ele>207.7</ele>
      </trkpt>
      <trkpt lat="45.680948" lon="5.497540">
        <ele>207.8</ele>
      </trkpt>
      <trkpt lat="45.680278" lon="5.496848">
        <ele>208.2</ele>
      </trkpt>
      <trkpt lat="45.680023" lon="5.496568">
        <ele>208.8</ele>
      </trkpt>
      <trkpt lat="45.679958" lon="5.496507">
        <ele>209.4</ele>
      </trkpt>
      <trkpt lat="45.679957" lon="5.496506">
        <ele>209.3</ele>
      </trkpt>
      <trkpt lat="45.679957" lon="5.496506">
        <ele>209.5</ele>
      </trkpt>
      <trkpt lat="45.679880" lon="5.496434">
        <ele>209.8</ele>
      </trkpt>
      <trkpt lat="45.679633" lon="5.496271">
        <ele>209.6</ele>
      </trkpt>
      <trkpt lat="45.679181" lon="5.495665">
        <ele>209.3</ele>
      </trkpt>
      <trkpt lat="45.678855" lon="5.495075">
        <ele>209.2</ele>
      </trkpt>
      <trkpt lat="45.678606" lon="5.494469">
        <ele>209.1</ele>
      </trkpt>
      <trkpt lat="45.677126" lon="5.491249">
        <ele>208.8</ele>
      </trkpt>
      <trkpt lat="45.676761" lon="5.490394">
        <ele>208.7</ele>
      </trkpt>
      <trkpt lat="45.676191" lon="5.489190">
        <ele>208.9</ele>
      </trkpt>
      <trkpt lat="45.675398" lon="5.487406">
        <ele>209.1</ele>
      </trkpt>
      <trkpt lat="45.673295" lon="5.482613">
        <ele>208.8</ele>
      </trkpt>
      <trkpt lat="45.673435" lon="5.482403">
        <ele>208.3</ele>
      </trkpt>
      <trkpt lat="45.673748" lon="5.481465">
        <ele>208.5</ele>
      </trkpt>
      <trkpt lat="45.674051" lon="5.480434">
        <ele>208.2</ele>
      </trkpt>
      <trkpt lat="45.674579" lon="5.478738">
        <ele>208.1</ele>
      </trkpt>
      <trkpt lat="45.674618" lon="5.478529">
        <ele>208.2</ele>
      </trkpt>
      <trkpt lat="45.674528" lon="5.478481">
        <ele>208.5</ele>
      </trkpt>
      <trkpt lat="45.673869" lon="5.478158">
        <ele>208.5</ele>
      </trkpt>
      <trkpt lat="45.673568" lon="5.477940">
        <ele>209.0</ele>
      </trkpt>
      <trkpt lat="45.672927" lon="5.477661">
        <ele>209.0</ele>
      </trkpt>
      <trkpt lat="45.672674" lon="5.477564">
        <ele>208.7</ele>
      </trkpt>
      <trkpt lat="45.672598" lon="5.477535">
        <ele>208.6</ele>
      </trkpt>
      <trkpt lat="45.672589" lon="5.477531">
        <ele>208.4</ele>
      </trkpt>
      <trkpt lat="45.672556" lon="5.477519">
        <ele>208.1</ele>
      </trkpt>
      <trkpt lat="45.672511" lon="5.477506">
        <ele>208.1</ele>
      </trkpt>
      <trkpt lat="45.672535" lon="5.476417">
        <ele>208.0</ele>
      </trkpt>
      <trkpt lat="45.672550" lon="5.475799">
        <ele>207.9</ele>
      </trkpt>
      <trkpt lat="45.672583" lon="5.474924">
        <ele>208.1</ele>
      </trkpt>
      <trkpt lat="45.672587" lon="5.474819">
        <ele>208.3</ele>
      </trkpt>
      <trkpt lat="45.672593" lon="5.474698">
        <ele>208.9</ele>
      </trkpt>
      <trkpt lat="45.672594" lon="5.474685">
        <ele>209.4</ele>
      </trkpt>
      <trkpt lat="45.672621" lon="5.474184">
        <ele>209.8</ele>
      </trkpt>
      <trkpt lat="45.672680" lon="5.473289">
        <ele>209.9</ele>
      </trkpt>
      <trkpt lat="45.672703" lon="5.472888">
        <ele>210.3</ele>
      </trkpt>
      <trkpt lat="45.672735" lon="5.472490">
        <ele>210.4</ele>
      </trkpt>
      <trkpt lat="45.672770" lon="5.472014">
        <ele>210.4</ele>
      </trkpt>
      <trkpt lat="45.672794" lon="5.471681">
        <ele>210.6</ele>
      </trkpt>
      <trkpt lat="45.672825" lon="5.471286">
        <ele>210.6</ele>
      </trkpt>
      <trkpt lat="45.672713" lon="5.471268">
        <ele>210.5</ele>
      </trkpt>
      <trkpt lat="45.672596" lon="5.471112">
        <ele>210.3</ele>
      </trkpt>
      <trkpt lat="45.672540" lon="5.470923">
        <ele>210.3</ele>
      </trkpt>
      <trkpt lat="45.672478" lon="5.470892">
        <ele>210.5</ele>
      </trkpt>
      <trkpt lat="45.672489" lon="5.470664">
        <ele>210.9</ele>
      </trkpt>
      <trkpt lat="45.672611" lon="5.470679">
        <ele>211.1</ele>
      </trkpt>
      <trkpt lat="45.672609" lon="5.470568">
        <ele>211.4</ele>
      </trkpt>
      <trkpt lat="45.672847" lon="5.470370">
        <ele>211.4</ele>
      </trkpt>
      <trkpt lat="45.672899" lon="5.470285">
        <ele>211.9</ele>
      </trkpt>
      <trkpt lat="45.673221" lon="5.469521">
        <ele>212.3</ele>
      </trkpt>
      <trkpt lat="45.673336" lon="5.469132">
        <ele>213.8</ele>
      </trkpt>
      <trkpt lat="45.673416" lon="5.468651">
        <ele>214.1</ele>
      </trkpt>
      <trkpt lat="45.673396" lon="5.467570">
        <ele>214.1</ele>
      </trkpt>
      <trkpt lat="45.673333" lon="5.466566">
        <ele>213.6</ele>
      </trkpt>
      <trkpt lat="45.673358" lon="5.465908">
        <ele>213.0</ele>
      </trkpt>
      <trkpt lat="45.673558" lon="5.464910">
        <ele>211.6</ele>
      </trkpt>
      <trkpt lat="45.673872" lon="5.463544">
        <ele>211.4</ele>
      </trkpt>
      <trkpt lat="45.674040" lon="5.463001">
        <ele>211.5</ele>
      </trkpt>
      <trkpt lat="45.674500" lon="5.462114">
        <ele>212.0</ele>
      </trkpt>
      <trkpt lat="45.674565" lon="5.461945">
        <ele>212.1</ele>
      </trkpt>
      <trkpt lat="45.674573" lon="5.461603">
        <ele>212.3</ele>
      </trkpt>
      <trkpt lat="45.674676" lon="5.461540">
        <ele>212.2</ele>
      </trkpt>
      <trkpt lat="45.674791" lon="5.461592">
        <ele>212.8</ele>
      </trkpt>
      <trkpt lat="45.674864" lon="5.461575">
        <ele>214.0</ele>
      </trkpt>
      <trkpt lat="45.676480" lon="5.459545">
        <ele>215.8</ele>
      </trkpt>
      <trkpt lat="45.677845" lon="5.457846">
        <ele>217.9</ele>
      </trkpt>
      <trkpt lat="45.678097" lon="5.457629">
        <ele>220.2</ele>
      </trkpt>
      <trkpt lat="45.678516" lon="5.457414">
        <ele>221.7</ele>
      </trkpt>
      <trkpt lat="45.678681" lon="5.457380">
        <ele>221.9</ele>
      </trkpt>
      <trkpt lat="45.678763" lon="5.457431">
        <ele>222.1</ele>
      </trkpt>
      <trkpt lat="45.680049" lon="5.457716">
        <ele>222.5</ele>
      </trkpt>
      <trkpt lat="45.681213" lon="5.458022">
        <ele>222.7</ele>
      </trkpt>
      <trkpt lat="45.681400" lon="5.457968">
        <ele>223.1</ele>
      </trkpt>
      <trkpt lat="45.681635" lon="5.457854">
        <ele>223.8</ele>
      </trkpt>
      <trkpt lat="45.681881" lon="5.458078">
        <ele>224.4</ele>
      </trkpt>
      <trkpt lat="45.682546" lon="5.458143">
        <ele>224.3</ele>
      </trkpt>
      <trkpt lat="45.682867" lon="5.458272">
        <ele>223.5</ele>
      </trkpt>
      <trkpt lat="45.683604" lon="5.458486">
        <ele>222.7</ele>
      </trkpt>
      <trkpt lat="45.684145" lon="5.458879">
        <ele>222.1</ele>
      </trkpt>
      <trkpt lat="45.684218" lon="5.458856">
        <ele>221.3</ele>
      </trkpt>
      <trkpt lat="45.684524" lon="5.458566">
        <ele>220.9</ele>
      </trkpt>
      <trkpt lat="45.685090" lon="5.458069">
        <ele>221.4</ele>
      </trkpt>
      <trkpt lat="45.685482" lon="5.457750">
        <ele>222.3</ele>
      </trkpt>
      <trkpt lat="45.685874" lon="5.457629">
        <ele>222.6</ele>
      </trkpt>
      <trkpt lat="45.686242" lon="5.457417">
        <ele>223.4</ele>
      </trkpt>
      <trkpt lat="45.686599" lon="5.457197">
        <ele>224.0</ele>
      </trkpt>
      <trkpt lat="45.686988" lon="5.456847">
        <ele>224.7</ele>
      </trkpt>
      <trkpt lat="45.687429" lon="5.456449">
        <ele>224.8</ele>
      </trkpt>
      <trkpt lat="45.687468" lon="5.456419">
        <ele>225.6</ele>
      </trkpt>
      <trkpt lat="45.687484" lon="5.456406">
        <ele>226.4</ele>
      </trkpt>
      <trkpt lat="45.687532" lon="5.456369">
        <ele>226.8</ele>
      </trkpt>
      <trkpt lat="45.687801" lon="5.456160">
        <ele>227.3</ele>
      </trkpt>
      <trkpt lat="45.687988" lon="5.456014">
        <ele>228.1</ele>
      </trkpt>
      <trkpt lat="45.688087" lon="5.455942">
        <ele>228.7</ele>
      </trkpt>
      <trkpt lat="45.688345" lon="5.455753">
        <ele>228.9</ele>
      </trkpt>
      <trkpt lat="45.688668" lon="5.455516">
        <ele>229.6</ele>
      </trkpt>
      <trkpt lat="45.688798" lon="5.455396">
        <ele>230.7</ele>
      </trkpt>
      <trkpt lat="45.688850" lon="5.455348">
        <ele>231.2</ele>
      </trkpt>
      <trkpt lat="45.689250" lon="5.454977">
        <ele>231.6</ele>
      </trkpt>
      <trkpt lat="45.689821" lon="5.454479">
        <ele>231.8</ele>
      </trkpt>
      <trkpt lat="45.689890" lon="5.454420">
        <ele>232.5</ele>
      </trkpt>
      <trkpt lat="45.689968" lon="5.454351">
        <ele>232.6</ele>
      </trkpt>
      <trkpt lat="45.690450" lon="5.453917">
        <ele>232.3</ele>
      </trkpt>
      <trkpt lat="45.690498" lon="5.453873">
        <ele>232.2</ele>
      </trkpt>
      <trkpt lat="45.690979" lon="5.453440">
        <ele>232.2</ele>
      </trkpt>
      <trkpt lat="45.691001" lon="5.453420">
        <ele>231.7</ele>
      </trkpt>
      <trkpt lat="45.691002" lon="5.453419">
        <ele>231.5</ele>
      </trkpt>
      <trkpt lat="45.691344" lon="5.453111">
        <ele>231.7</ele>
      </trkpt>
      <trkpt lat="45.691503" lon="5.452931">
        <ele>231.9</ele>
      </trkpt>
      <trkpt lat="45.691623" lon="5.452795">
        <ele>232.0</ele>
      </trkpt>
      <trkpt lat="45.691639" lon="5.452777">
        <ele>232.1</ele>
      </trkpt>
      <trkpt lat="45.691777" lon="5.452620">
        <ele>232.0</ele>
      </trkpt>
      <trkpt lat="45.691846" lon="5.452542">
        <ele>231.5</ele>
      </trkpt>
      <trkpt lat="45.691897" lon="5.452483">
        <ele>231.7</ele>
      </trkpt>
      <trkpt lat="45.692156" lon="5.452159">
        <ele>231.3</ele>
      </trkpt>
      <trkpt lat="45.692207" lon="5.452070">
        <ele>231.0</ele>
      </trkpt>
      <trkpt lat="45.692388" lon="5.451754">
        <ele>231.1</ele>
      </trkpt>
      <trkpt lat="45.692397" lon="5.451741">
        <ele>231.8</ele>
      </trkpt>
      <trkpt lat="45.692438" lon="5.451676">
        <ele>231.8</ele>
      </trkpt>
      <trkpt lat="45.692580" lon="5.451456">
        <ele>232.5</ele>
      </trkpt>
      <trkpt lat="45.692877" lon="5.450539">
        <ele>233.4</ele>
      </trkpt>
      <trkpt lat="45.693181" lon="5.449521">
        <ele>234.0</ele>
      </trkpt>
      <trkpt lat="45.693376" lon="5.449007">
        <ele>234.4</ele>
      </trkpt>
      <trkpt lat="45.693552" lon="5.448637">
        <ele>235.3</ele>
      </trkpt>
      <trkpt lat="45.693803" lon="5.448240">
        <ele>236.6</ele>
      </trkpt>
      <trkpt lat="45.693687" lon="5.447772">
        <ele>237.9</ele>
      </trkpt>
      <trkpt lat="45.693572" lon="5.447207">
        <ele>238.9</ele>
      </trkpt>
      <trkpt lat="45.693569" lon="5.446743">
        <ele>239.9</ele>
      </trkpt>
      <trkpt lat="45.693632" lon="5.445921">
        <ele>240.5</ele>
      </trkpt>
      <trkpt lat="45.693743" lon="5.444971">
        <ele>240.7</ele>
      </trkpt>
      <trkpt lat="45.693809" lon="5.444612">
        <ele>240.5</ele>
      </trkpt>
      <trkpt lat="45.693872" lon="5.444346">
        <ele>240.5</ele>
      </trkpt>
      <trkpt lat="45.693978" lon="5.444052">
        <ele>240.5</ele>
      </trkpt>
      <trkpt lat="45.694179" lon="5.443594">
        <ele>240.4</ele>
      </trkpt>
      <trkpt lat="45.694521" lon="5.442982">
        <ele>240.2</ele>
      </trkpt>
      <trkpt lat="45.695152" lon="5.441964">
        <ele>239.6</ele>
      </trkpt>
      <trkpt lat="45.695119" lon="5.441873">
        <ele>239.0</ele>
      </trkpt>
      <trkpt lat="45.695664" lon="5.441276">
        <ele>238.6</ele>
      </trkpt>
      <trkpt lat="45.695690" lon="5.441034">
        <ele>238.2</ele>
      </trkpt>
      <trkpt lat="45.695735" lon="5.440718">
        <ele>237.9</ele>
      </trkpt>
      <trkpt lat="45.695781" lon="5.440432">
        <ele>238.4</ele>
      </trkpt>
      <trkpt lat="45.695880" lon="5.440224">
        <ele>239.1</ele>
      </trkpt>
      <trkpt lat="45.696126" lon="5.439844">
        <ele>239.9</ele>
      </trkpt>
      <trkpt lat="45.696283" lon="5.439594">
        <ele>240.9</ele>
      </trkpt>
      <trkpt lat="45.696443" lon="5.439272">
        <ele>241.8</ele>
      </trkpt>
      <trkpt lat="45.696518" lon="5.439081">
        <ele>242.4</ele>
      </trkpt>
      <trkpt lat="45.696587" lon="5.438906">
        <ele>242.8</ele>
      </trkpt>
      <trkpt lat="45.696648" lon="5.438484">
        <ele>243.2</ele>
      </trkpt>
      <trkpt lat="45.696663" lon="5.438208">
        <ele>243.2</ele>
      </trkpt>
      <trkpt lat="45.696640" lon="5.437883">
        <ele>243.4</ele>
      </trkpt>
      <trkpt lat="45.696623" lon="5.437560">
        <ele>243.6</ele>
      </trkpt>
      <trkpt lat="45.696628" lon="5.437277">
        <ele>243.6</ele>
      </trkpt>
      <trkpt lat="45.696630" lon="5.437076">
        <ele>243.5</ele>
      </trkpt>
      <trkpt lat="45.696719" lon="5.436910">
        <ele>243.4</ele>
      </trkpt>
      <trkpt lat="45.696802" lon="5.436807">
        <ele>243.3</ele>
      </trkpt>
      <trkpt lat="45.697183" lon="5.436616">
        <ele>243.5</ele>
      </trkpt>
      <trkpt lat="45.697295" lon="5.436470">
        <ele>243.5</ele>
      </trkpt>
      <trkpt lat="45.697478" lon="5.436264">
        <ele>243.5</ele>
      </trkpt>
      <trkpt lat="45.697757" lon="5.435985">
        <ele>243.7</ele>
      </trkpt>
      <trkpt lat="45.698044" lon="5.435769">
        <ele>244.2</ele>
      </trkpt>
      <trkpt lat="45.698387" lon="5.435540">
        <ele>244.6</ele>
      </trkpt>
      <trkpt lat="45.698545" lon="5.435424">
        <ele>245.2</ele>
      </trkpt>
      <trkpt lat="45.698803" lon="5.435237">
        <ele>245.7</ele>
      </trkpt>
      <trkpt lat="45.699048" lon="5.435033">
        <ele>246.1</ele>
      </trkpt>
      <trkpt lat="45.699409" lon="5.434857">
        <ele>246.6</ele>
      </trkpt>
      <trkpt lat="45.699545" lon="5.434783">
        <ele>246.5</ele>
      </trkpt>
      <trkpt lat="45.699655" lon="5.434678">
        <ele>246.4</ele>
      </trkpt>
      <trkpt lat="45.699831" lon="5.434501">
        <ele>246.7</ele>
      </trkpt>
      <trkpt lat="45.700046" lon="5.434280">
        <ele>246.9</ele>
      </trkpt>
      <trkpt lat="45.700241" lon="5.434075">
        <ele>246.5</ele>
      </trkpt>
      <trkpt lat="45.700418" lon="5.433906">
        <ele>246.2</ele>
      </trkpt>
      <trkpt lat="45.700643" lon="5.433732">
        <ele>246.3</ele>
      </trkpt>
      <trkpt lat="45.700821" lon="5.433630">
        <ele>245.9</ele>
      </trkpt>
      <trkpt lat="45.701011" lon="5.433461">
        <ele>246.3</ele>
      </trkpt>
      <trkpt lat="45.701122" lon="5.433282">
        <ele>245.8</ele>
      </trkpt>
      <trkpt lat="45.701270" lon="5.433045">
        <ele>245.8</ele>
      </trkpt>
      <trkpt lat="45.701245" lon="5.432695">
        <ele>245.2</ele>
      </trkpt>
      <trkpt lat="45.701219" lon="5.432165">
        <ele>245.2</ele>
      </trkpt>
      <trkpt lat="45.701187" lon="5.431770">
        <ele>244.5</ele>
      </trkpt>
      <trkpt lat="45.701190" lon="5.431473">
        <ele>245.3</ele>
      </trkpt>
      <trkpt lat="45.701214" lon="5.431170">
        <ele>245.8</ele>
      </trkpt>
      <trkpt lat="45.701258" lon="5.430927">
        <ele>247.6</ele>
      </trkpt>
      <trkpt lat="45.701301" lon="5.430615">
        <ele>248.8</ele>
      </trkpt>
      <trkpt lat="45.701617" lon="5.430451">
        <ele>250.2</ele>
      </trkpt>
      <trkpt lat="45.701887" lon="5.430317">
        <ele>251.1</ele>
      </trkpt>
      <trkpt lat="45.702213" lon="5.430275">
        <ele>252.9</ele>
      </trkpt>
      <trkpt lat="45.702548" lon="5.430219">
        <ele>253.3</ele>
      </trkpt>
      <trkpt lat="45.702804" lon="5.430174">
        <ele>253.7</ele>
      </trkpt>
      <trkpt lat="45.703095" lon="5.430093">
        <ele>253.5</ele>
      </trkpt>
      <trkpt lat="45.703354" lon="5.430042">
        <ele>253.4</ele>
      </trkpt>
      <trkpt lat="45.703586" lon="5.430035">
        <ele>252.7</ele>
      </trkpt>
      <trkpt lat="45.703814" lon="5.430145">
        <ele>251.3</ele>
      </trkpt>
      <trkpt lat="45.704038" lon="5.430236">
        <ele>250.1</ele>
      </trkpt>
      <trkpt lat="45.704255" lon="5.430141">
        <ele>248.6</ele>
      </trkpt>
      <trkpt lat="45.704379" lon="5.429930">
        <ele>247.0</ele>
      </trkpt>
      <trkpt lat="45.704549" lon="5.429676">
        <ele>245.4</ele>
      </trkpt>
      <trkpt lat="45.704729" lon="5.429398">
        <ele>244.5</ele>
      </trkpt>
      <trkpt lat="45.704894" lon="5.429052">
        <ele>243.8</ele>
      </trkpt>
      <trkpt lat="45.704992" lon="5.428805">
        <ele>243.3</ele>
      </trkpt>
      <trkpt lat="45.705081" lon="5.428749">
        <ele>242.9</ele>
      </trkpt>
      <trkpt lat="45.705318" lon="5.428663">
        <ele>242.1</ele>
      </trkpt>
      <trkpt lat="45.705486" lon="5.428624">
        <ele>240.9</ele>
      </trkpt>
      <trkpt lat="45.705585" lon="5.428465">
        <ele>240.1</ele>
      </trkpt>
      <trkpt lat="45.705722" lon="5.428145">
        <ele>239.4</ele>
      </trkpt>
      <trkpt lat="45.705801" lon="5.427898">
        <ele>239.1</ele>
      </trkpt>
      <trkpt lat="45.705837" lon="5.427718">
        <ele>239.1</ele>
      </trkpt>
      <trkpt lat="45.705883" lon="5.427528">
        <ele>239.4</ele>
      </trkpt>
      <trkpt lat="45.706032" lon="5.427296">
        <ele>238.7</ele>
      </trkpt>
      <trkpt lat="45.706270" lon="5.427026">
        <ele>237.5</ele>
      </trkpt>
      <trkpt lat="45.706745" lon="5.426439">
        <ele>235.4</ele>
      </trkpt>
      <trkpt lat="45.706896" lon="5.426066">
        <ele>233.2</ele>
      </trkpt>
      <trkpt lat="45.706998" lon="5.425820">
        <ele>230.2</ele>
      </trkpt>
      <trkpt lat="45.707066" lon="5.425380">
        <ele>228.3</ele>
      </trkpt>
      <trkpt lat="45.707121" lon="5.425036">
        <ele>228.1</ele>
      </trkpt>
      <trkpt lat="45.707105" lon="5.424538">
        <ele>227.5</ele>
      </trkpt>
      <trkpt lat="45.707088" lon="5.424045">
        <ele>226.6</ele>
      </trkpt>
      <trkpt lat="45.707090" lon="5.423756">
        <ele>226.5</ele>
      </trkpt>
      <trkpt lat="45.707202" lon="5.422957">
        <ele>227.0</ele>
      </trkpt>
      <trkpt lat="45.707196" lon="5.422471">
        <ele>226.3</ele>
      </trkpt>
      <trkpt lat="45.707100" lon="5.421869">
        <ele>226.5</ele>
      </trkpt>
      <trkpt lat="45.707001" lon="5.421529">
        <ele>226.8</ele>
      </trkpt>
      <trkpt lat="45.706919" lon="5.421261">
        <ele>227.1</ele>
      </trkpt>
      <trkpt lat="45.706847" lon="5.421053">
        <ele>226.4</ele>
      </trkpt>
      <trkpt lat="45.706841" lon="5.420864">
        <ele>225.7</ele>
      </trkpt>
      <trkpt lat="45.707020" lon="5.420849">
        <ele>225.2</ele>
      </trkpt>
      <trkpt lat="45.707228" lon="5.420882">
        <ele>223.9</ele>
      </trkpt>
      <trkpt lat="45.707563" lon="5.420877">
        <ele>222.7</ele>
      </trkpt>
      <trkpt lat="45.709067" lon="5.420905">
        <ele>221.8</ele>
      </trkpt>
      <trkpt lat="45.709312" lon="5.420966">
        <ele>221.9</ele>
      </trkpt>
      <trkpt lat="45.710192" lon="5.420736">
        <ele>222.1</ele>
      </trkpt>
      <trkpt lat="45.711157" lon="5.420207">
        <ele>223.2</ele>
      </trkpt>
      <trkpt lat="45.711427" lon="5.420594">
        <ele>224.2</ele>
      </trkpt>
      <trkpt lat="45.711813" lon="5.421011">
        <ele>225.2</ele>
      </trkpt>
      <trkpt lat="45.712124" lon="5.421293">
        <ele>225.6</ele>
      </trkpt>
      <trkpt lat="45.712475" lon="5.421583">
        <ele>224.4</ele>
      </trkpt>
      <trkpt lat="45.712831" lon="5.421794">
        <ele>224.8</ele>
      </trkpt>
      <trkpt lat="45.713210" lon="5.421975">
        <ele>225.5</ele>
      </trkpt>
      <trkpt lat="45.713634" lon="5.422147">
        <ele>226.3</ele>
      </trkpt>
      <trkpt lat="45.714049" lon="5.422224">
        <ele>227.2</ele>
      </trkpt>
      <trkpt lat="45.714862" lon="5.422259">
        <ele>228.8</ele>
      </trkpt>
      <trkpt lat="45.715754" lon="5.422283">
        <ele>230.0</ele>
      </trkpt>
      <trkpt lat="45.716822" lon="5.422273">
        <ele>231.0</ele>
      </trkpt>
      <trkpt lat="45.717967" lon="5.422227">
        <ele>231.6</ele>
      </trkpt>
      <trkpt lat="45.718518" lon="5.422063">
        <ele>231.8</ele>
      </trkpt>
      <trkpt lat="45.718646" lon="5.422071">
        <ele>232.8</ele>
      </trkpt>
      <trkpt lat="45.719199" lon="5.422103">
        <ele>232.4</ele>
      </trkpt>
      <trkpt lat="45.719334" lon="5.422152">
        <ele>232.4</ele>
      </trkpt>
      <trkpt lat="45.719571" lon="5.422237">
        <ele>233.0</ele>
      </trkpt>
      <trkpt lat="45.721129" lon="5.422733">
        <ele>233.3</ele>
      </trkpt>
      <trkpt lat="45.723401" lon="5.423529">
        <ele>233.4</ele>
      </trkpt>
      <trkpt lat="45.723964" lon="5.423830">
        <ele>234.4</ele>
      </trkpt>
      <trkpt lat="45.726833" lon="5.425351">
        <ele>235.8</ele>
      </trkpt>
      <trkpt lat="45.727027" lon="5.425455">
        <ele>236.6</ele>
      </trkpt>
      <trkpt lat="45.727788" lon="5.425827">
        <ele>237.8</ele>
      </trkpt>
      <trkpt lat="45.728264" lon="5.426049">
        <ele>239.4</ele>
      </trkpt>
      <trkpt lat="45.728513" lon="5.426165">
        <ele>239.8</ele>
      </trkpt>
      <trkpt lat="45.729051" lon="5.426300">
        <ele>239.4</ele>
      </trkpt>
      <trkpt lat="45.729530" lon="5.426333">
        <ele>239.8</ele>
      </trkpt>
      <trkpt lat="45.730134" lon="5.426258">
        <ele>239.7</ele>
      </trkpt>
      <trkpt lat="45.730787" lon="5.426071">
        <ele>238.4</ele>
      </trkpt>
      <trkpt lat="45.731215" lon="5.425799">
        <ele>237.2</ele>
      </trkpt>
      <trkpt lat="45.731374" lon="5.425698">
        <ele>236.1</ele>
      </trkpt>
      <trkpt lat="45.731526" lon="5.425583">
        <ele>234.1</ele>
      </trkpt>
      <trkpt lat="45.731526" lon="5.425583">
        <ele>232.8</ele>
      </trkpt>
      <trkpt lat="45.732069" lon="5.425172">
        <ele>232.1</ele>
      </trkpt>
      <trkpt lat="45.732688" lon="5.424432">
        <ele>231.8</ele>
      </trkpt>
      <trkpt lat="45.733005" lon="5.424039">
        <ele>231.1</ele>
      </trkpt>
      <trkpt lat="45.733303" lon="5.423670">
        <ele>231.6</ele>
      </trkpt>
      <trkpt lat="45.733653" lon="5.423251">
        <ele>233.0</ele>
      </trkpt>
      <trkpt lat="45.734004" lon="5.422907">
        <ele>235.9</ele>
      </trkpt>
      <trkpt lat="45.734338" lon="5.422649">
        <ele>237.0</ele>
      </trkpt>
      <trkpt lat="45.734656" lon="5.422443">
        <ele>239.5</ele>
      </trkpt>
      <trkpt lat="45.735108" lon="5.422200">
        <ele>241.9</ele>
      </trkpt>
      <trkpt lat="45.735364" lon="5.422116">
        <ele>242.7</ele>
      </trkpt>
      <trkpt lat="45.735495" lon="5.422073">
        <ele>242.1</ele>
      </trkpt>
      <trkpt lat="45.735720" lon="5.422023">
        <ele>243.7</ele>
      </trkpt>
      <trkpt lat="45.735756" lon="5.422014">
        <ele>243.4</ele>
      </trkpt>
      <trkpt lat="45.735984" lon="5.421963">
        <ele>241.5</ele>
      </trkpt>
      <trkpt lat="45.736369" lon="5.421961">
        <ele>241.6</ele>
      </trkpt>
      <trkpt lat="45.736702" lon="5.421980">
        <ele>240.5</ele>
      </trkpt>
      <trkpt lat="45.737173" lon="5.422058">
        <ele>238.5</ele>
      </trkpt>
      <trkpt lat="45.737849" lon="5.422201">
        <ele>237.5</ele>
      </trkpt>
      <trkpt lat="45.738415" lon="5.422326">
        <ele>236.7</ele>
      </trkpt>
      <trkpt lat="45.738600" lon="5.422368">
        <ele>234.3</ele>
      </trkpt>
      <trkpt lat="45.740357" lon="5.422759">
        <ele>233.1</ele>
      </trkpt>
      <trkpt lat="45.741879" lon="5.423063">
        <ele>233.2</ele>
      </trkpt>
      <trkpt lat="45.745224" lon="5.423832">
        <ele>233.3</ele>
      </trkpt>
      <trkpt lat="45.748401" lon="5.424531">
        <ele>233.8</ele>
      </trkpt>
      <trkpt lat="45.748401" lon="5.424531">
        <ele>234.3</ele>
      </trkpt>
      <trkpt lat="45.749764" lon="5.424831">
        <ele>235.7</ele>
      </trkpt>
      <trkpt lat="45.749796" lon="5.424838">
        <ele>237.7</ele>
      </trkpt>
      <trkpt lat="45.749786" lon="5.424998">
        <ele>239.3</ele>
      </trkpt>
      <trkpt lat="45.749864" lon="5.425099">
        <ele>241.1</ele>
      </trkpt>
      <trkpt lat="45.749978" lon="5.425107">
        <ele>243.4</ele>
      </trkpt>
      <trkpt lat="45.750330" lon="5.425102">
        <ele>243.2</ele>
      </trkpt>
      <trkpt lat="45.751324" lon="5.425265">
        <ele>241.6</ele>
      </trkpt>
      <trkpt lat="45.752042" lon="5.425334">
        <ele>240.8</ele>
      </trkpt>
      <trkpt lat="45.752353" lon="5.425371">
        <ele>240.1</ele>
      </trkpt>
      <trkpt lat="45.753450" lon="5.425503">
        <ele>238.3</ele>
      </trkpt>
      <trkpt lat="45.753928" lon="5.425500">
        <ele>238.9</ele>
      </trkpt>
      <trkpt lat="45.754518" lon="5.425573">
        <ele>238.2</ele>
      </trkpt>
      <trkpt lat="45.754667" lon="5.425618">
        <ele>238.5</ele>
      </trkpt>
      <trkpt lat="45.754845" lon="5.425672">
        <ele>238.5</ele>
      </trkpt>
      <trkpt lat="45.755271" lon="5.425800">
        <ele>239.0</ele>
      </trkpt>
      <trkpt lat="45.755317" lon="5.425824">
        <ele>238.7</ele>
      </trkpt>
      <trkpt lat="45.755416" lon="5.425875">
        <ele>239.9</ele>
      </trkpt>
      <trkpt lat="45.755576" lon="5.426036">
        <ele>238.9</ele>
      </trkpt>
      <trkpt lat="45.755948" lon="5.426622">
        <ele>237.4</ele>
      </trkpt>
      <trkpt lat="45.756175" lon="5.427241">
        <ele>236.0</ele>
      </trkpt>
      <trkpt lat="45.756214" lon="5.427096">
        <ele>234.4</ele>
      </trkpt>
      <trkpt lat="45.756273" lon="5.426939">
        <ele>232.5</ele>
      </trkpt>
      <trkpt lat="45.756348" lon="5.426857">
        <ele>231.3</ele>
      </trkpt>
      <trkpt lat="45.756604" lon="5.426739">
        <ele>230.3</ele>
      </trkpt>
      <trkpt lat="45.756984" lon="5.426647">
        <ele>229.7</ele>
      </trkpt>
      <trkpt lat="45.757432" lon="5.426568">
        <ele>229.2</ele>
      </trkpt>
      <trkpt lat="45.757590" lon="5.426556">
        <ele>228.7</ele>
      </trkpt>
      <trkpt lat="45.757832" lon="5.426538">
        <ele>228.5</ele>
      </trkpt>
      <trkpt lat="45.758326" lon="5.426510">
        <ele>228.5</ele>
      </trkpt>
      <trkpt lat="45.758831" lon="5.426438">
        <ele>228.4</ele>
      </trkpt>
      <trkpt lat="45.759663" lon="5.426297">
        <ele>228.3</ele>
      </trkpt>
      <trkpt lat="45.760004" lon="5.426227">
        <ele>228.3</ele>
      </trkpt>
      <trkpt lat="45.760097" lon="5.426207">
        <ele>228.2</ele>
      </trkpt>
      <trkpt lat="45.760198" lon="5.426164">
        <ele>228.2</ele>
      </trkpt>
      <trkpt lat="45.760291" lon="5.426054">
        <ele>228.2</ele>
      </trkpt>
      <trkpt lat="45.760386" lon="5.425892">
        <ele>228.4</ele>
      </trkpt>
      <trkpt lat="45.760473" lon="5.425711">
        <ele>228.7</ele>
      </trkpt>
      <trkpt lat="45.760582" lon="5.425495">
        <ele>228.9</ele>
      </trkpt>
      <trkpt lat="45.760586" lon="5.425487">
        <ele>229.7</ele>
      </trkpt>
      <trkpt lat="45.760589" lon="5.425482">
        <ele>230.7</ele>
      </trkpt>
      <trkpt lat="45.760814" lon="5.425110">
        <ele>231.6</ele>
      </trkpt>
      <trkpt lat="45.760855" lon="5.425052">
        <ele>233.0</ele>
      </trkpt>
      <trkpt lat="45.760917" lon="5.424964">
        <ele>234.4</ele>
      </trkpt>
      <trkpt lat="45.761311" lon="5.424639">
        <ele>235.1</ele>
      </trkpt>
      <trkpt lat="45.761313" lon="5.424637">
        <ele>235.5</ele>
      </trkpt>
      <trkpt lat="45.761333" lon="5.424621">
        <ele>235.6</ele>
      </trkpt>
      <trkpt lat="45.762167" lon="5.424610">
        <ele>234.7</ele>
      </trkpt>
      <trkpt lat="45.762435" lon="5.424628">
        <ele>233.8</ele>
      </trkpt>
      <trkpt lat="45.762865" lon="5.424657">
        <ele>233.1</ele>
      </trkpt>
      <trkpt lat="45.762868" lon="5.424657">
        <ele>232.4</ele>
      </trkpt>
      <trkpt lat="45.762875" lon="5.424658">
        <ele>231.8</ele>
      </trkpt>
      <trkpt lat="45.762889" lon="5.424651">
        <ele>232.1</ele>
      </trkpt>
      <trkpt lat="45.762899" lon="5.424646">
        <ele>232.4</ele>
      </trkpt>
      <trkpt lat="45.763064" lon="5.424563">
        <ele>231.7</ele>
      </trkpt>
      <trkpt lat="45.763069" lon="5.424560">
        <ele>230.9</ele>
      </trkpt>
      <trkpt lat="45.763138" lon="5.424525">
        <ele>230.7</ele>
      </trkpt>
      <trkpt lat="45.763157" lon="5.424516">
        <ele>230.3</ele>
      </trkpt>
      <trkpt lat="45.763310" lon="5.424499">
        <ele>229.6</ele>
      </trkpt>
      <trkpt lat="45.763566" lon="5.424671">
        <ele>230.2</ele>
      </trkpt>
      <trkpt lat="45.763745" lon="5.424790">
        <ele>230.5</ele>
      </trkpt>
      <trkpt lat="45.763833" lon="5.424794">
        <ele>230.4</ele>
      </trkpt>
      <trkpt lat="45.763925" lon="5.424765">
        <ele>229.9</ele>
      </trkpt>
      <trkpt lat="45.764190" lon="5.424683">
        <ele>229.9</ele>
      </trkpt>
      <trkpt lat="45.764513" lon="5.424582">
        <ele>229.1</ele>
      </trkpt>
      <trkpt lat="45.764654" lon="5.424596">
        <ele>228.7</ele>
      </trkpt>
      <trkpt lat="45.764837" lon="5.424616">
        <ele>228.6</ele>
      </trkpt>
      <trkpt lat="45.765139" lon="5.424787">
        <ele>228.6</ele>
      </trkpt>
      <trkpt lat="45.765563" lon="5.425027">
        <ele>228.4</ele>
      </trkpt>
      <trkpt lat="45.765955" lon="5.425253">
        <ele>227.9</ele>
      </trkpt>
      <trkpt lat="45.766458" lon="5.425650">
        <ele>227.5</ele>
      </trkpt>
      <trkpt lat="45.766781" lon="5.425892">
        <ele>226.7</ele>
      </trkpt>
      <trkpt lat="45.767059" lon="5.426031">
        <ele>226.0</ele>
      </trkpt>
      <trkpt lat="45.767216" lon="5.426165">
        <ele>226.3</ele>
      </trkpt>
      <trkpt lat="45.767240" lon="5.426196">
        <ele>226.9</ele>
      </trkpt>
      <trkpt lat="45.767280" lon="5.426248">
        <ele>228.2</ele>
      </trkpt>
      <trkpt lat="45.767322" lon="5.426304">
        <ele>229.3</ele>
      </trkpt>
      <trkpt lat="45.767431" lon="5.426547">
        <ele>230.7</ele>
      </trkpt>
      <trkpt lat="45.767505" lon="5.426732">
        <ele>230.8</ele>
      </trkpt>
      <trkpt lat="45.767605" lon="5.426983">
        <ele>231.1</ele>
      </trkpt>
      <trkpt lat="45.767666" lon="5.427115">
        <ele>231.0</ele>
      </trkpt>
      <trkpt lat="45.767729" lon="5.427251">
        <ele>230.7</ele>
      </trkpt>
      <trkpt lat="45.767753" lon="5.427303">
        <ele>229.6</ele>
      </trkpt>
      <trkpt lat="45.767856" lon="5.427492">
        <ele>229.1</ele>
      </trkpt>
      <trkpt lat="45.768001" lon="5.427758">
        <ele>228.4</ele>
      </trkpt>
      <trkpt lat="45.768277" lon="5.428084">
        <ele>227.5</ele>
      </trkpt>
      <trkpt lat="45.768551" lon="5.428391">
        <ele>228.2</ele>
      </trkpt>
      <trkpt lat="45.768590" lon="5.428434">
        <ele>228.9</ele>
      </trkpt>
      <trkpt lat="45.768828" lon="5.428764">
        <ele>229.2</ele>
      </trkpt>
      <trkpt lat="45.768905" lon="5.428931">
        <ele>230.3</ele>
      </trkpt>
      <trkpt lat="45.768951" lon="5.429030">
        <ele>231.8</ele>
      </trkpt>
      <trkpt lat="45.769062" lon="5.429320">
        <ele>231.6</ele>
      </trkpt>
      <trkpt lat="45.769164" lon="5.429797">
        <ele>232.2</ele>
      </trkpt>
      <trkpt lat="45.769361" lon="5.430432">
        <ele>232.6</ele>
      </trkpt>
      <trkpt lat="45.769538" lon="5.430980">
        <ele>231.9</ele>
      </trkpt>
      <trkpt lat="45.769744" lon="5.431561">
        <ele>230.0</ele>
      </trkpt>
      <trkpt lat="45.769855" lon="5.431833">
        <ele>228.7</ele>
      </trkpt>
      <trkpt lat="45.769999" lon="5.432144">
        <ele>226.7</ele>
      </trkpt>
      <trkpt lat="45.770094" lon="5.432633">
        <ele>225.5</ele>
      </trkpt>
      <trkpt lat="45.770509" lon="5.434245">
        <ele>225.5</ele>
      </trkpt>
      <trkpt lat="45.770931" lon="5.433972">
        <ele>225.7</ele>
      </trkpt>
      <trkpt lat="45.770963" lon="5.432492">
        <ele>226.1</ele>
      </trkpt>
      <trkpt lat="45.771946" lon="5.431576">
        <ele>225.7</ele>
      </trkpt>
      <trkpt lat="45.771865" lon="5.431444">
        <ele>225.0</ele>
      </trkpt>
      <trkpt lat="45.771707" lon="5.430998">
        <ele>223.8</ele>
      </trkpt>
      <trkpt lat="45.771765" lon="5.430899">
        <ele>223.3</ele>
      </trkpt>
      <trkpt lat="45.771865" lon="5.430772">
        <ele>223.8</ele>
      </trkpt>
      <trkpt lat="45.771978" lon="5.430637">
        <ele>224.2</ele>
      </trkpt>
      <trkpt lat="45.772150" lon="5.430462">
        <ele>225.8</ele>
      </trkpt>
      <trkpt lat="45.772317" lon="5.430782">
        <ele>227.0</ele>
      </trkpt>
      <trkpt lat="45.772596" lon="5.431271">
        <ele>227.9</ele>
      </trkpt>
      <trkpt lat="45.772857" lon="5.431655">
        <ele>227.5</ele>
      </trkpt>
      <trkpt lat="45.773160" lon="5.432004">
        <ele>228.0</ele>
      </trkpt>
      <trkpt lat="45.773479" lon="5.432334">
        <ele>226.8</ele>
      </trkpt>
      <trkpt lat="45.773909" lon="5.432702">
        <ele>226.1</ele>
      </trkpt>
      <trkpt lat="45.774036" lon="5.432777">
        <ele>225.6</ele>
      </trkpt>
      <trkpt lat="45.774045" lon="5.432783">
        <ele>224.2</ele>
      </trkpt>
      <trkpt lat="45.774093" lon="5.432811">
        <ele>223.1</ele>
      </trkpt>
      <trkpt lat="45.774307" lon="5.432940">
        <ele>222.3</ele>
      </trkpt>
      <trkpt lat="45.774761" lon="5.433177">
        <ele>221.7</ele>
      </trkpt>
      <trkpt lat="45.775185" lon="5.433319">
        <ele>221.3</ele>
      </trkpt>
      <trkpt lat="45.775608" lon="5.433414">
        <ele>221.7</ele>
      </trkpt>
      <trkpt lat="45.776048" lon="5.433431">
        <ele>222.3</ele>
      </trkpt>
      <trkpt lat="45.776937" lon="5.433325">
        <ele>222.7</ele>
      </trkpt>
      <trkpt lat="45.777752" lon="5.433236">
        <ele>222.8</ele>
      </trkpt>
      <trkpt lat="45.778113" lon="5.434329">
        <ele>222.8</ele>
      </trkpt>
      <trkpt lat="45.778804" lon="5.436345">
        <ele>222.8</ele>
      </trkpt>
      <trkpt lat="45.779020" lon="5.436071">
        <ele>222.7</ele>
      </trkpt>
      <trkpt lat="45.779167" lon="5.435802">
        <ele>223.0</ele>
      </trkpt>
      <trkpt lat="45.779416" lon="5.435344">
        <ele>223.8</ele>
      </trkpt>
      <trkpt lat="45.779659" lon="5.434834">
        <ele>224.8</ele>
      </trkpt>
      <trkpt lat="45.779923" lon="5.434207">
        <ele>224.9</ele>
      </trkpt>
      <trkpt lat="45.780253" lon="5.433749">
        <ele>225.4</ele>
      </trkpt>
      <trkpt lat="45.780567" lon="5.433275">
        <ele>225.5</ele>
      </trkpt>
      <trkpt lat="45.780697" lon="5.433110">
        <ele>225.4</ele>
      </trkpt>
      <trkpt lat="45.780850" lon="5.433046">
        <ele>224.8</ele>
      </trkpt>
      <trkpt lat="45.781057" lon="5.432987">
        <ele>225.0</ele>
      </trkpt>
      <trkpt lat="45.781112" lon="5.432849">
        <ele>224.9</ele>
      </trkpt>
      <trkpt lat="45.781080" lon="5.432690">
        <ele>225.0</ele>
      </trkpt>
      <trkpt lat="45.781297" lon="5.432500">
        <ele>225.0</ele>
      </trkpt>
      <trkpt lat="45.781633" lon="5.432335">
        <ele>225.9</ele>
      </trkpt>
      <trkpt lat="45.781902" lon="5.432158">
        <ele>226.3</ele>
      </trkpt>
      <trkpt lat="45.782130" lon="5.432124">
        <ele>226.2</ele>
      </trkpt>
      <trkpt lat="45.782647" lon="5.432154">
        <ele>225.6</ele>
      </trkpt>
      <trkpt lat="45.782901" lon="5.432149">
        <ele>225.0</ele>
      </trkpt>
      <trkpt lat="45.783267" lon="5.432100">
        <ele>223.8</ele>
      </trkpt>
      <trkpt lat="45.783512" lon="5.432175">
        <ele>223.2</ele>
      </trkpt>
      <trkpt lat="45.783738" lon="5.432230">
        <ele>222.9</ele>
      </trkpt>
      <trkpt lat="45.783917" lon="5.432201">
        <ele>223.1</ele>
      </trkpt>
      <trkpt lat="45.784112" lon="5.432151">
        <ele>223.3</ele>
      </trkpt>
      <trkpt lat="45.784294" lon="5.432163">
        <ele>223.3</ele>
      </trkpt>
      <trkpt lat="45.784466" lon="5.432207">
        <ele>223.3</ele>
      </trkpt>
      <trkpt lat="45.785743" lon="5.432072">
        <ele>222.9</ele>
      </trkpt>
      <trkpt lat="45.785759" lon="5.432177">
        <ele>222.4</ele>
      </trkpt>
      <trkpt lat="45.789120" lon="5.431743">
        <ele>222.3</ele>
      </trkpt>
      <trkpt lat="45.789165" lon="5.432046">
        <ele>223.8</ele>
      </trkpt>
      <trkpt lat="45.789300" lon="5.432818">
        <ele>226.4</ele>
      </trkpt>
      <trkpt lat="45.789471" lon="5.433829">
        <ele>229.9</ele>
      </trkpt>
      <trkpt lat="45.789552" lon="5.434384">
        <ele>234.1</ele>
      </trkpt>
      <trkpt lat="45.789575" lon="5.434726">
        <ele>237.3</ele>
      </trkpt>
      <trkpt lat="45.789547" lon="5.435033">
        <ele>239.4</ele>
      </trkpt>
      <trkpt lat="45.789460" lon="5.435440">
        <ele>239.6</ele>
      </trkpt>
      <trkpt lat="45.789437" lon="5.435696">
        <ele>239.0</ele>
      </trkpt>
      <trkpt lat="45.789696" lon="5.435574">
        <ele>237.1</ele>
      </trkpt>
      <trkpt lat="45.790094" lon="5.435339">
        <ele>234.7</ele>
      </trkpt>
      <trkpt lat="45.790410" lon="5.435089">
        <ele>232.0</ele>
      </trkpt>
      <trkpt lat="45.790680" lon="5.434790">
        <ele>229.4</ele>
      </trkpt>
      <trkpt lat="45.791077" lon="5.434388">
        <ele>228.1</ele>
      </trkpt>
      <trkpt lat="45.791456" lon="5.434047">
        <ele>226.1</ele>
      </trkpt>
      <trkpt lat="45.791828" lon="5.433774">
        <ele>225.3</ele>
      </trkpt>
      <trkpt lat="45.792224" lon="5.433504">
        <ele>224.7</ele>
      </trkpt>
      <trkpt lat="45.792727" lon="5.433192">
        <ele>224.4</ele>
      </trkpt>
      <trkpt lat="45.793179" lon="5.432947">
        <ele>223.1</ele>
      </trkpt>
      <trkpt lat="45.793402" lon="5.432693">
        <ele>224.0</ele>
      </trkpt>
      <trkpt lat="45.793655" lon="5.432334">
        <ele>224.8</ele>
      </trkpt>
      <trkpt lat="45.793853" lon="5.432061">
        <ele>225.3</ele>
      </trkpt>
      <trkpt lat="45.794096" lon="5.431791">
        <ele>225.8</ele>
      </trkpt>
      <trkpt lat="45.794329" lon="5.431545">
        <ele>226.8</ele>
      </trkpt>
      <trkpt lat="45.794814" lon="5.431275">
        <ele>226.5</ele>
      </trkpt>
      <trkpt lat="45.795389" lon="5.431003">
        <ele>225.9</ele>
      </trkpt>
      <trkpt lat="45.796124" lon="5.430690">
        <ele>225.6</ele>
      </trkpt>
      <trkpt lat="45.796454" lon="5.430428">
        <ele>225.6</ele>
      </trkpt>
      <trkpt lat="45.796738" lon="5.430152">
        <ele>224.3</ele>
      </trkpt>
      <trkpt lat="45.796998" lon="5.429769">
        <ele>223.5</ele>
      </trkpt>
      <trkpt lat="45.797578" lon="5.429012">
        <ele>223.2</ele>
      </trkpt>
      <trkpt lat="45.797810" lon="5.428490">
        <ele>222.7</ele>
      </trkpt>
      <trkpt lat="45.797985" lon="5.428024">
        <ele>222.4</ele>
      </trkpt>
      <trkpt lat="45.798149" lon="5.427548">
        <ele>223.0</ele>
      </trkpt>
      <trkpt lat="45.798300" lon="5.427021">
        <ele>223.6</ele>
      </trkpt>
      <trkpt lat="45.798388" lon="5.426707">
        <ele>222.9</ele>
      </trkpt>
      <trkpt lat="45.798494" lon="5.426471">
        <ele>222.3</ele>
      </trkpt>
      <trkpt lat="45.798705" lon="5.426146">
        <ele>222.1</ele>
      </trkpt>
      <trkpt lat="45.799003" lon="5.425745">
        <ele>221.7</ele>
      </trkpt>
      <trkpt lat="45.799333" lon="5.425321">
        <ele>221.2</ele>
      </trkpt>
      <trkpt lat="45.799595" lon="5.424911">
        <ele>221.5</ele>
      </trkpt>
      <trkpt lat="45.799748" lon="5.424673">
        <ele>222.1</ele>
      </trkpt>
      <trkpt lat="45.799893" lon="5.424419">
        <ele>221.4</ele>
      </trkpt>
      <trkpt lat="45.800034" lon="5.424107">
        <ele>220.9</ele>
      </trkpt>
      <trkpt lat="45.799955" lon="5.423767">
        <ele>220.1</ele>
      </trkpt>
      <trkpt lat="45.799886" lon="5.423221">
        <ele>219.8</ele>
      </trkpt>
      <trkpt lat="45.799622" lon="5.421268">
        <ele>219.3</ele>
      </trkpt>
      <trkpt lat="45.800550" lon="5.420498">
        <ele>219.2</ele>
      </trkpt>
      <trkpt lat="45.800824" lon="5.420251">
        <ele>219.0</ele>
      </trkpt>
      <trkpt lat="45.800816" lon="5.420100">
        <ele>219.1</ele>
      </trkpt>
      <trkpt lat="45.800736" lon="5.419824">
        <ele>218.8</ele>
      </trkpt>
      <trkpt lat="45.800474" lon="5.419102">
        <ele>218.8</ele>
      </trkpt>
      <trkpt lat="45.800259" lon="5.418380">
        <ele>218.8</ele>
      </trkpt>
      <trkpt lat="45.800018" lon="5.417613">
        <ele>218.9</ele>
      </trkpt>
      <trkpt lat="45.799950" lon="5.417390">
        <ele>218.9</ele>
      </trkpt>
      <trkpt lat="45.799908" lon="5.417275">
        <ele>218.9</ele>
      </trkpt>
      <trkpt lat="45.799884" lon="5.417140">
        <ele>219.0</ele>
      </trkpt>
      <trkpt lat="45.799898" lon="5.417014">
        <ele>219.1</ele>
      </trkpt>
      <trkpt lat="45.799949" lon="5.416937">
        <ele>219.0</ele>
      </trkpt>
      <trkpt lat="45.800069" lon="5.416824">
        <ele>219.0</ele>
      </trkpt>
      <trkpt lat="45.800355" lon="5.416561">
        <ele>219.2</ele>
      </trkpt>
      <trkpt lat="45.800485" lon="5.416434">
        <ele>219.0</ele>
      </trkpt>
      <trkpt lat="45.800621" lon="5.416232">
        <ele>218.7</ele>
      </trkpt>
      <trkpt lat="45.800742" lon="5.416046">
        <ele>218.8</ele>
      </trkpt>
      <trkpt lat="45.800835" lon="5.415867">
        <ele>218.9</ele>
      </trkpt>
      <trkpt lat="45.800879" lon="5.415710">
        <ele>218.8</ele>
      </trkpt>
      <trkpt lat="45.800892" lon="5.415651">
        <ele>218.5</ele>
      </trkpt>
      <trkpt lat="45.801234" lon="5.415664">
        <ele>218.5</ele>
      </trkpt>
      <trkpt lat="45.801423" lon="5.415747">
        <ele>218.2</ele>
      </trkpt>
      <trkpt lat="45.801591" lon="5.415882">
        <ele>218.3</ele>
      </trkpt>
      <trkpt lat="45.801754" lon="5.416123">
        <ele>218.2</ele>
      </trkpt>
      <trkpt lat="45.801921" lon="5.416498">
        <ele>218.3</ele>
      </trkpt>
      <trkpt lat="45.802127" lon="5.416901">
        <ele>218.3</ele>
      </trkpt>
      <trkpt lat="45.802567" lon="5.416408">
        <ele>218.4</ele>
      </trkpt>
      <trkpt lat="45.802632" lon="5.416460">
        <ele>218.2</ele>
      </trkpt>
      <trkpt lat="45.802697" lon="5.416446">
        <ele>218.2</ele>
      </trkpt>
      <trkpt lat="45.802738" lon="5.416412">
        <ele>218.3</ele>
      </trkpt>
      <trkpt lat="45.802763" lon="5.416328">
        <ele>218.4</ele>
      </trkpt>
      <trkpt lat="45.802765" lon="5.416263">
        <ele>218.5</ele>
      </trkpt>
      <trkpt lat="45.802762" lon="5.416166">
        <ele>218.6</ele>
      </trkpt>
      <trkpt lat="45.802917" lon="5.415990">
        <ele>218.6</ele>
      </trkpt>
      <trkpt lat="45.802918" lon="5.415989">
        <ele>218.6</ele>
      </trkpt>
      <trkpt lat="45.803085" lon="5.415800">
        <ele>218.6</ele>
      </trkpt>
      <trkpt lat="45.803148" lon="5.415679">
        <ele>218.4</ele>
      </trkpt>
      <trkpt lat="45.803171" lon="5.415567">
        <ele>218.3</ele>
      </trkpt>
      <trkpt lat="45.803213" lon="5.415477">
        <ele>218.0</ele>
      </trkpt>
      <trkpt lat="45.803378" lon="5.415373">
        <ele>217.7</ele>
      </trkpt>
      <trkpt lat="45.803561" lon="5.415291">
        <ele>217.6</ele>
      </trkpt>
      <trkpt lat="45.803745" lon="5.415235">
        <ele>217.9</ele>
      </trkpt>
      <trkpt lat="45.803992" lon="5.415177">
        <ele>218.2</ele>
      </trkpt>
      <trkpt lat="45.804104" lon="5.414944">
        <ele>218.3</ele>
      </trkpt>
      <trkpt lat="45.804310" lon="5.414840">
        <ele>218.8</ele>
      </trkpt>
      <trkpt lat="45.805404" lon="5.414369">
        <ele>218.9</ele>
      </trkpt>
      <trkpt lat="45.805568" lon="5.414293">
        <ele>218.4</ele>
      </trkpt>
      <trkpt lat="45.805677" lon="5.414301">
        <ele>217.9</ele>
      </trkpt>
      <trkpt lat="45.806114" lon="5.414323">
        <ele>217.6</ele>
      </trkpt>
      <trkpt lat="45.806258" lon="5.414286">
        <ele>217.0</ele>
      </trkpt>
      <trkpt lat="45.806379" lon="5.414213">
        <ele>216.5</ele>
      </trkpt>
      <trkpt lat="45.806509" lon="5.414120">
        <ele>216.5</ele>
      </trkpt>
      <trkpt lat="45.806583" lon="5.414077">
        <ele>216.8</ele>
      </trkpt>
      <trkpt lat="45.807200" lon="5.415608">
        <ele>216.8</ele>
      </trkpt>
      <trkpt lat="45.808349" lon="5.418407">
        <ele>217.3</ele>
      </trkpt>
      <trkpt lat="45.808755" lon="5.418193">
        <ele>217.8</ele>
      </trkpt>
      <trkpt lat="45.809423" lon="5.417750">
        <ele>219.4</ele>
      </trkpt>
      <trkpt lat="45.809729" lon="5.417536">
        <ele>220.0</ele>
      </trkpt>
      <trkpt lat="45.809821" lon="5.417416">
        <ele>219.7</ele>
      </trkpt>
      <trkpt lat="45.809979" lon="5.417306">
        <ele>218.7</ele>
      </trkpt>
      <trkpt lat="45.810487" lon="5.416983">
        <ele>217.9</ele>
      </trkpt>
      <trkpt lat="45.811541" lon="5.416276">
        <ele>215.7</ele>
      </trkpt>
      <trkpt lat="45.812313" lon="5.415809">
        <ele>214.5</ele>
      </trkpt>
      <trkpt lat="45.812950" lon="5.415427">
        <ele>214.2</ele>
      </trkpt>
      <trkpt lat="45.813533" lon="5.415005">
        <ele>213.9</ele>
      </trkpt>
      <trkpt lat="45.813977" lon="5.414633">
        <ele>213.6</ele>
      </trkpt>
      <trkpt lat="45.814384" lon="5.414289">
        <ele>213.3</ele>
      </trkpt>
      <trkpt lat="45.814670" lon="5.414082">
        <ele>211.9</ele>
      </trkpt>
      <trkpt lat="45.814836" lon="5.413786">
        <ele>210.0</ele>
      </trkpt>
      <trkpt lat="45.814876" lon="5.413269">
        <ele>208.6</ele>
      </trkpt>
      <trkpt lat="45.814946" lon="5.412470">
        <ele>207.2</ele>
      </trkpt>
      <trkpt lat="45.814858" lon="5.412142">
        <ele>205.6</ele>
      </trkpt>
      <trkpt lat="45.814717" lon="5.411869">
        <ele>206.1</ele>
      </trkpt>
      <trkpt lat="45.814609" lon="5.411710">
        <ele>206.9</ele>
      </trkpt>
      <trkpt lat="45.814495" lon="5.411536">
        <ele>208.0</ele>
      </trkpt>
      <trkpt lat="45.814373" lon="5.411352">
        <ele>209.2</ele>
      </trkpt>
      <trkpt lat="45.814300" lon="5.411178">
        <ele>210.2</ele>
      </trkpt>
      <trkpt lat="45.814244" lon="5.411034">
        <ele>210.3</ele>
      </trkpt>
      <trkpt lat="45.814198" lon="5.410857">
        <ele>210.0</ele>
      </trkpt>
      <trkpt lat="45.814269" lon="5.410950">
        <ele>209.5</ele>
      </trkpt>
      <trkpt lat="45.814367" lon="5.411170">
        <ele>208.9</ele>
      </trkpt>
      <trkpt lat="45.814444" lon="5.411292">
        <ele>208.7</ele>
      </trkpt>
      <trkpt lat="45.814497" lon="5.411382">
        <ele>208.6</ele>
      </trkpt>
      <trkpt lat="45.814533" lon="5.411464">
        <ele>208.5</ele>
      </trkpt>
      <trkpt lat="45.814565" lon="5.411524">
        <ele>208.2</ele>
      </trkpt>
      <trkpt lat="45.814634" lon="5.411553">
        <ele>207.8</ele>
      </trkpt>
      <trkpt lat="45.814721" lon="5.411558">
        <ele>207.2</ele>
      </trkpt>
      <trkpt lat="45.815016" lon="5.411553">
        <ele>206.8</ele>
      </trkpt>
      <trkpt lat="45.815125" lon="5.411613">
        <ele>207.0</ele>
      </trkpt>
      <trkpt lat="45.815263" lon="5.411642">
        <ele>207.0</ele>
      </trkpt>
      <trkpt lat="45.815446" lon="5.411632">
        <ele>206.7</ele>
      </trkpt>
      <trkpt lat="45.815601" lon="5.411660">
        <ele>206.3</ele>
      </trkpt>
      <trkpt lat="45.815797" lon="5.411714">
        <ele>205.5</ele>
      </trkpt>
      <trkpt lat="45.816040" lon="5.411824">
        <ele>205.0</ele>
      </trkpt>
      <trkpt lat="45.816336" lon="5.412012">
        <ele>204.6</ele>
      </trkpt>
      <trkpt lat="45.816357" lon="5.412035">
        <ele>204.4</ele>
      </trkpt>
      <trkpt lat="45.816437" lon="5.412090">
        <ele>204.4</ele>
      </trkpt>
      <trkpt lat="45.816522" lon="5.412459">
        <ele>204.2</ele>
      </trkpt>
      <trkpt lat="45.816663" lon="5.413019">
        <ele>204.1</ele>
      </trkpt>
      <trkpt lat="45.816821" lon="5.413661">
        <ele>204.1</ele>
      </trkpt>
      <trkpt lat="45.816967" lon="5.414264">
        <ele>203.9</ele>
      </trkpt>
      <trkpt lat="45.817090" lon="5.414758">
        <ele>203.8</ele>
      </trkpt>
      <trkpt lat="45.817119" lon="5.414932">
        <ele>203.7</ele>
      </trkpt>
      <trkpt lat="45.817140" lon="5.415071">
        <ele>203.6</ele>
      </trkpt>
      <trkpt lat="45.817162" lon="5.415334">
        <ele>203.3</ele>
      </trkpt>
      <trkpt lat="45.817190" lon="5.415535">
        <ele>203.0</ele>
      </trkpt>
      <trkpt lat="45.817201" lon="5.415683">
        <ele>202.9</ele>
      </trkpt>
      <trkpt lat="45.817231" lon="5.415764">
        <ele>202.3</ele>
      </trkpt>
      <trkpt lat="45.817319" lon="5.415890">
        <ele>201.5</ele>
      </trkpt>
      <trkpt lat="45.817425" lon="5.416023">
        <ele>201.3</ele>
      </trkpt>
      <trkpt lat="45.817594" lon="5.416239">
        <ele>201.3</ele>
      </trkpt>
      <trkpt lat="45.817680" lon="5.416349">
        <ele>200.7</ele>
      </trkpt>
      <trkpt lat="45.817719" lon="5.416434">
        <ele>201.1</ele>
      </trkpt>
      <trkpt lat="45.817715" lon="5.416555">
        <ele>201.6</ele>
      </trkpt>
      <trkpt lat="45.817713" lon="5.416701">
        <ele>201.2</ele>
      </trkpt>
      <trkpt lat="45.817726" lon="5.416763">
        <ele>200.9</ele>
      </trkpt>
      <trkpt lat="45.817766" lon="5.416873">
        <ele>201.4</ele>
      </trkpt>
      <trkpt lat="45.817826" lon="5.416973">
        <ele>201.4</ele>
      </trkpt>
      <trkpt lat="45.817865" lon="5.417069">
        <ele>201.7</ele>
      </trkpt>
      <trkpt lat="45.817897" lon="5.417120">
        <ele>202.2</ele>
      </trkpt>
      <trkpt lat="45.817952" lon="5.417120">
        <ele>202.9</ele>
      </trkpt>
      <trkpt lat="45.818026" lon="5.417113">
        <ele>203.0</ele>
      </trkpt>
      <trkpt lat="45.818083" lon="5.417141">
        <ele>203.1</ele>
      </trkpt>
      <trkpt lat="45.818123" lon="5.417224">
        <ele>202.8</ele>
      </trkpt>
      <trkpt lat="45.818426" lon="5.417953">
        <ele>202.5</ele>
      </trkpt>
      <trkpt lat="45.818488" lon="5.418056">
        <ele>202.3</ele>
      </trkpt>
      <trkpt lat="45.818541" lon="5.418152">
        <ele>202.0</ele>
      </trkpt>
      <trkpt lat="45.818589" lon="5.418293">
        <ele>201.8</ele>
      </trkpt>
      <trkpt lat="45.818605" lon="5.418384">
        <ele>201.5</ele>
      </trkpt>
      <trkpt lat="45.818603" lon="5.418503">
        <ele>201.2</ele>
      </trkpt>
      <trkpt lat="45.818577" lon="5.418640">
        <ele>200.9</ele>
      </trkpt>
      <trkpt lat="45.818554" lon="5.418807">
        <ele>200.8</ele>
      </trkpt>
      <trkpt lat="45.818688" lon="5.418884">
        <ele>200.4</ele>
      </trkpt>
      <trkpt lat="45.819213" lon="5.419089">
        <ele>200.2</ele>
      </trkpt>
      <trkpt lat="45.819924" lon="5.419314">
        <ele>200.1</ele>
      </trkpt>
      <trkpt lat="45.820623" lon="5.419546">
        <ele>199.9</ele>
      </trkpt>
      <trkpt lat="45.821257" lon="5.419746">
        <ele>199.5</ele>
      </trkpt>
      <trkpt lat="45.821432" lon="5.419775">
        <ele>199.5</ele>
      </trkpt>
      <trkpt lat="45.821519" lon="5.419784">
        <ele>199.7</ele>
      </trkpt>
      <trkpt lat="45.821685" lon="5.419658">
        <ele>200.5</ele>
      </trkpt>
      <trkpt lat="45.821875" lon="5.419514">
        <ele>201.4</ele>
      </trkpt>
      <trkpt lat="45.822006" lon="5.419408">
        <ele>201.7</ele>
      </trkpt>
      <trkpt lat="45.822062" lon="5.419417">
        <ele>202.0</ele>
      </trkpt>
      <trkpt lat="45.822243" lon="5.419578">
        <ele>201.8</ele>
      </trkpt>
      <trkpt lat="45.822464" lon="5.419826">
        <ele>201.0</ele>
      </trkpt>
      <trkpt lat="45.822548" lon="5.419950">
        <ele>200.1</ele>
      </trkpt>
      <trkpt lat="45.822578" lon="5.420050">
        <ele>199.8</ele>
      </trkpt>
      <trkpt lat="45.822586" lon="5.420160">
        <ele>199.5</ele>
      </trkpt>
      <trkpt lat="45.822669" lon="5.420231">
        <ele>199.5</ele>
      </trkpt>
      <trkpt lat="45.822737" lon="5.420257">
        <ele>199.6</ele>
      </trkpt>
      <trkpt lat="45.822936" lon="5.420126">
        <ele>200.0</ele>
      </trkpt>
      <trkpt lat="45.823457" lon="5.420327">
        <ele>199.9</ele>
      </trkpt>
      <trkpt lat="45.824080" lon="5.420876">
        <ele>199.9</ele>
      </trkpt>
      <trkpt lat="45.824309" lon="5.421418">
        <ele>199.8</ele>
      </trkpt>
      <trkpt lat="45.824611" lon="5.421317">
        <ele>200.1</ele>
      </trkpt>
      <trkpt lat="45.825446" lon="5.420811">
        <ele>200.1</ele>
      </trkpt>
      <trkpt lat="45.825655" lon="5.420945">
        <ele>200.4</ele>
      </trkpt>
      <trkpt lat="45.825808" lon="5.421954">
        <ele>200.8</ele>
      </trkpt>
      <trkpt lat="45.825554" lon="5.422225">
        <ele>201.4</ele>
      </trkpt>
      <trkpt lat="45.825550" lon="5.422444">
        <ele>201.8</ele>
      </trkpt>
      <trkpt lat="45.825940" lon="5.422618">
        <ele>201.6</ele>
      </trkpt>
      <trkpt lat="45.825979" lon="5.423548">
        <ele>202.3</ele>
      </trkpt>
      <trkpt lat="45.825961" lon="5.424017">
        <ele>202.8</ele>
      </trkpt>
      <trkpt lat="45.826018" lon="5.424448">
        <ele>202.3</ele>
      </trkpt>
      <trkpt lat="45.825970" lon="5.424957">
        <ele>201.7</ele>
      </trkpt>
      <trkpt lat="45.825980" lon="5.425521">
        <ele>201.6</ele>
      </trkpt>
      <trkpt lat="45.826037" lon="5.425935">
        <ele>200.8</ele>
      </trkpt>
      <trkpt lat="45.826026" lon="5.426990">
        <ele>200.1</ele>
      </trkpt>
      <trkpt lat="45.826053" lon="5.427752">
        <ele>200.3</ele>
      </trkpt>
      <trkpt lat="45.826098" lon="5.428897">
        <ele>200.3</ele>
      </trkpt>
      <trkpt lat="45.826134" lon="5.430479">
        <ele>200.2</ele>
      </trkpt>
      <trkpt lat="45.826172" lon="5.431654">
        <ele>200.2</ele>
      </trkpt>
      <trkpt lat="45.826180" lon="5.432492">
        <ele>200.3</ele>
      </trkpt>
      <trkpt lat="45.826289" lon="5.432993">
        <ele>200.3</ele>
      </trkpt>
      <trkpt lat="45.826291" lon="5.433004">
        <ele>200.4</ele>
      </trkpt>
      <trkpt lat="45.826308" lon="5.433036">
        <ele>200.6</ele>
      </trkpt>
      <trkpt lat="45.826497" lon="5.433416">
        <ele>200.6</ele>
      </trkpt>
      <trkpt lat="45.826682" lon="5.433678">
        <ele>200.5</ele>
      </trkpt>
      <trkpt lat="45.826915" lon="5.433821">
        <ele>200.3</ele>
      </trkpt>
      <trkpt lat="45.827080" lon="5.433893">
        <ele>199.9</ele>
      </trkpt>
      <trkpt lat="45.827160" lon="5.433928">
        <ele>199.8</ele>
      </trkpt>
      <trkpt lat="45.827380" lon="5.433885">
        <ele>199.7</ele>
      </trkpt>
      <trkpt lat="45.829631" lon="5.432742">
        <ele>199.6</ele>
      </trkpt>
      <trkpt lat="45.829771" lon="5.432656">
        <ele>199.6</ele>
      </trkpt>
      <trkpt lat="45.830112" lon="5.432447">
        <ele>199.9</ele>
      </trkpt>
      <trkpt lat="45.830253" lon="5.432341">
        <ele>199.7</ele>
      </trkpt>
      <trkpt lat="45.830365" lon="5.432257">
        <ele>199.5</ele>
      </trkpt>
      <trkpt lat="45.830898" lon="5.431680">
        <ele>199.6</ele>
      </trkpt>
      <trkpt lat="45.830919" lon="5.431656">
        <ele>199.6</ele>
      </trkpt>
      <trkpt lat="45.831006" lon="5.431554">
        <ele>199.3</ele>
      </trkpt>
      <trkpt lat="45.832310" lon="5.430052">
        <ele>199.4</ele>
      </trkpt>
      <trkpt lat="45.832661" lon="5.429647">
        <ele>199.4</ele>
      </trkpt>
      <trkpt lat="45.834227" lon="5.427903">
        <ele>199.4</ele>
      </trkpt>
      <trkpt lat="45.834620" lon="5.427454">
        <ele>199.4</ele>
      </trkpt>
      <trkpt lat="45.835105" lon="5.426781">
        <ele>199.6</ele>
      </trkpt>
      <trkpt lat="45.835202" lon="5.426648">
        <ele>199.6</ele>
      </trkpt>
      <trkpt lat="45.835598" lon="5.425918">
        <ele>199.6</ele>
      </trkpt>
      <trkpt lat="45.836014" lon="5.425048">
        <ele>199.6</ele>
      </trkpt>
      <trkpt lat="45.836368" lon="5.424074">
        <ele>199.8</ele>
      </trkpt>
      <trkpt lat="45.836712" lon="5.423018">
        <ele>199.8</ele>
      </trkpt>
      <trkpt lat="45.837318" lon="5.421297">
        <ele>200.0</ele>
      </trkpt>
      <trkpt lat="45.837412" lon="5.421031">
        <ele>200.4</ele>
      </trkpt>
      <trkpt lat="45.837707" lon="5.420136">
        <ele>200.7</ele>
      </trkpt>
      <trkpt lat="45.837867" lon="5.419603">
        <ele>201.7</ele>
      </trkpt>
      <trkpt lat="45.838048" lon="5.419168">
        <ele>201.8</ele>
      </trkpt>
      <trkpt lat="45.838417" lon="5.418591">
        <ele>201.8</ele>
      </trkpt>
      <trkpt lat="45.838583" lon="5.418334">
        <ele>202.4</ele>
      </trkpt>
      <trkpt lat="45.838797" lon="5.418001">
        <ele>201.8</ele>
      </trkpt>
      <trkpt lat="45.839135" lon="5.417424">
        <ele>202.3</ele>
      </trkpt>
      <trkpt lat="45.839388" lon="5.417019">
        <ele>203.8</ele>
      </trkpt>
      <trkpt lat="45.839789" lon="5.416585">
        <ele>203.7</ele>
      </trkpt>
      <trkpt lat="45.839798" lon="5.416575">
        <ele>202.3</ele>
      </trkpt>
      <trkpt lat="45.840173" lon="5.416352">
        <ele>202.0</ele>
      </trkpt>
      <trkpt lat="45.840528" lon="5.416230">
        <ele>199.8</ele>
      </trkpt>
      <trkpt lat="45.840874" lon="5.416174">
        <ele>197.6</ele>
      </trkpt>
      <trkpt lat="45.841034" lon="5.416174">
        <ele>198.4</ele>
      </trkpt>
      <trkpt lat="45.841321" lon="5.416174">
        <ele>199.7</ele>
      </trkpt>
      <trkpt lat="45.841682" lon="5.416153">
        <ele>200.5</ele>
      </trkpt>
      <trkpt lat="45.841999" lon="5.416104">
        <ele>201.4</ele>
      </trkpt>
      <trkpt lat="45.842214" lon="5.416018">
        <ele>201.4</ele>
      </trkpt>
      <trkpt lat="45.842560" lon="5.415895">
        <ele>200.8</ele>
      </trkpt>
      <trkpt lat="45.842897" lon="5.415775">
        <ele>199.5</ele>
      </trkpt>
      <trkpt lat="45.843267" lon="5.415718">
        <ele>199.5</ele>
      </trkpt>
      <trkpt lat="45.843494" lon="5.415670">
        <ele>198.4</ele>
      </trkpt>
      <trkpt lat="45.843892" lon="5.415591">
        <ele>198.4</ele>
      </trkpt>
      <trkpt lat="45.844307" lon="5.415423">
        <ele>197.6</ele>
      </trkpt>
      <trkpt lat="45.844423" lon="5.415378">
        <ele>200.5</ele>
      </trkpt>
      <trkpt lat="45.844586" lon="5.415316">
        <ele>199.8</ele>
      </trkpt>
      <trkpt lat="45.844778" lon="5.415243">
        <ele>201.7</ele>
      </trkpt>
      <trkpt lat="45.845163" lon="5.415087">
        <ele>201.7</ele>
      </trkpt>
      <trkpt lat="45.845620" lon="5.414852">
        <ele>202.9</ele>
      </trkpt>
      <trkpt lat="45.846011" lon="5.414594">
        <ele>200.2</ele>
      </trkpt>
      <trkpt lat="45.846447" lon="5.414215">
        <ele>203.6</ele>
      </trkpt>
      <trkpt lat="45.846916" lon="5.413753">
        <ele>202.0</ele>
      </trkpt>
      <trkpt lat="45.847347" lon="5.413214">
        <ele>205.8</ele>
      </trkpt>
      <trkpt lat="45.847693" lon="5.412634">
        <ele>204.6</ele>
      </trkpt>
      <trkpt lat="45.848105" lon="5.411896">
        <ele>207.6</ele>
      </trkpt>
      <trkpt lat="45.848518" lon="5.411169">
        <ele>206.5</ele>
      </trkpt>
      <trkpt lat="45.849181" lon="5.409892">
        <ele>207.8</ele>
      </trkpt>
      <trkpt lat="45.849688" lon="5.408983">
        <ele>205.7</ele>
      </trkpt>
      <trkpt lat="45.850308" lon="5.407976">
        <ele>207.3</ele>
      </trkpt>
      <trkpt lat="45.850726" lon="5.407312">
        <ele>205.5</ele>
      </trkpt>
      <trkpt lat="45.851031" lon="5.406902">
        <ele>202.9</ele>
      </trkpt>
      <trkpt lat="45.851053" lon="5.406872">
        <ele>203.6</ele>
      </trkpt>
      <trkpt lat="45.851260" lon="5.406628">
        <ele>202.9</ele>
      </trkpt>
      <trkpt lat="45.851479" lon="5.406448">
        <ele>202.9</ele>
      </trkpt>
      <trkpt lat="45.851602" lon="5.406369">
        <ele>203.6</ele>
      </trkpt>
      <trkpt lat="45.851740" lon="5.406280">
        <ele>204.8</ele>
      </trkpt>
      <trkpt lat="45.851963" lon="5.406058">
        <ele>203.7</ele>
      </trkpt>
      <trkpt lat="45.852254" lon="5.405773">
        <ele>203.4</ele>
      </trkpt>
      <trkpt lat="45.852475" lon="5.405564">
        <ele>203.4</ele>
      </trkpt>
      <trkpt lat="45.852732" lon="5.405376">
        <ele>202.6</ele>
      </trkpt>
      <trkpt lat="45.852817" lon="5.405282">
        <ele>202.4</ele>
      </trkpt>
      <trkpt lat="45.852846" lon="5.405251">
        <ele>202.9</ele>
      </trkpt>
      <trkpt lat="45.853549" lon="5.406862">
        <ele>202.9</ele>
      </trkpt>
      <trkpt lat="45.853110" lon="5.407343">
        <ele>202.4</ele>
      </trkpt>
      <trkpt lat="45.852375" lon="5.408105">
        <ele>202.2</ele>
      </trkpt>
      <trkpt lat="45.851886" lon="5.408602">
        <ele>202.4</ele>
      </trkpt>
      <trkpt lat="45.851053" lon="5.409563">
        <ele>201.8</ele>
      </trkpt>
      <trkpt lat="45.850611" lon="5.410041">
        <ele>202.1</ele>
      </trkpt>
      <trkpt lat="45.850466" lon="5.410137">
        <ele>202.2</ele>
      </trkpt>
      <trkpt lat="45.850194" lon="5.410513">
        <ele>202.1</ele>
      </trkpt>
      <trkpt lat="45.849617" lon="5.411514">
        <ele>201.1</ele>
      </trkpt>
      <trkpt lat="45.849089" lon="5.412443">
        <ele>199.8</ele>
      </trkpt>
      <trkpt lat="45.848940" lon="5.412708">
        <ele>198.7</ele>
      </trkpt>
      <trkpt lat="45.848728" lon="5.413088">
        <ele>198.6</ele>
      </trkpt>
      <trkpt lat="45.848467" lon="5.413554">
        <ele>197.3</ele>
      </trkpt>
      <trkpt lat="45.848124" lon="5.414097">
        <ele>198.7</ele>
      </trkpt>
      <trkpt lat="45.847902" lon="5.414400">
        <ele>199.1</ele>
      </trkpt>
      <trkpt lat="45.847702" lon="5.414672">
        <ele>199.9</ele>
      </trkpt>
      <trkpt lat="45.847245" lon="5.415216">
        <ele>199.2</ele>
      </trkpt>
      <trkpt lat="45.846959" lon="5.415501">
        <ele>200.1</ele>
      </trkpt>
      <trkpt lat="45.846551" lon="5.415836">
        <ele>199.5</ele>
      </trkpt>
      <trkpt lat="45.846279" lon="5.416043">
        <ele>199.6</ele>
      </trkpt>
      <trkpt lat="45.846278" lon="5.416044">
        <ele>199.7</ele>
      </trkpt>
      <trkpt lat="45.846144" lon="5.416155">
        <ele>200.4</ele>
      </trkpt>
      <trkpt lat="45.846113" lon="5.416180">
        <ele>200.4</ele>
      </trkpt>
      <trkpt lat="45.846112" lon="5.416181">
        <ele>199.6</ele>
      </trkpt>
      <trkpt lat="45.845907" lon="5.416327">
        <ele>199.2</ele>
      </trkpt>
      <trkpt lat="45.845648" lon="5.416539">
        <ele>199.4</ele>
      </trkpt>
      <trkpt lat="45.845648" lon="5.416540">
        <ele>199.0</ele>
      </trkpt>
      <trkpt lat="45.845545" lon="5.416692">
        <ele>198.5</ele>
      </trkpt>
      <trkpt lat="45.845538" lon="5.416851">
        <ele>198.9</ele>
      </trkpt>
      <trkpt lat="45.845580" lon="5.417285">
        <ele>200.6</ele>
      </trkpt>
      <trkpt lat="45.845623" lon="5.417640">
        <ele>201.3</ele>
      </trkpt>
      <trkpt lat="45.845714" lon="5.418394">
        <ele>202.5</ele>
      </trkpt>
      <trkpt lat="45.845735" lon="5.418758">
        <ele>203.1</ele>
      </trkpt>
      <trkpt lat="45.845735" lon="5.419096">
        <ele>203.5</ele>
      </trkpt>
      <trkpt lat="45.846159" lon="5.418477">
        <ele>202.3</ele>
      </trkpt>
      <trkpt lat="45.847445" lon="5.417588">
        <ele>200.8</ele>
      </trkpt>
      <trkpt lat="45.848142" lon="5.417047">
        <ele>199.5</ele>
      </trkpt>
      <trkpt lat="45.848294" lon="5.416928">
        <ele>198.4</ele>
      </trkpt>
      <trkpt lat="45.848295" lon="5.416928">
        <ele>197.7</ele>
      </trkpt>
      <trkpt lat="45.848749" lon="5.416575">
        <ele>198.4</ele>
      </trkpt>
      <trkpt lat="45.848969" lon="5.416404">
        <ele>197.9</ele>
      </trkpt>
      <trkpt lat="45.850695" lon="5.415841">
        <ele>198.1</ele>
      </trkpt>
      <trkpt lat="45.851259" lon="5.415329">
        <ele>198.4</ele>
      </trkpt>
      <trkpt lat="45.852496" lon="5.414209">
        <ele>198.4</ele>
      </trkpt>
      <trkpt lat="45.852853" lon="5.413382">
        <ele>197.5</ele>
      </trkpt>
      <trkpt lat="45.853180" lon="5.412247">
        <ele>197.4</ele>
      </trkpt>
      <trkpt lat="45.853497" lon="5.410805">
        <ele>196.7</ele>
      </trkpt>
      <trkpt lat="45.853741" lon="5.410228">
        <ele>197.7</ele>
      </trkpt>
      <trkpt lat="45.854195" lon="5.409048">
        <ele>197.6</ele>
      </trkpt>
      <trkpt lat="45.854486" lon="5.408676">
        <ele>197.0</ele>
      </trkpt>
      <trkpt lat="45.854529" lon="5.408621">
        <ele>197.0</ele>
      </trkpt>
      <trkpt lat="45.854543" lon="5.408604">
        <ele>197.1</ele>
      </trkpt>
      <trkpt lat="45.854543" lon="5.408603">
        <ele>195.6</ele>
      </trkpt>
      <trkpt lat="45.854543" lon="5.408603">
        <ele>197.0</ele>
      </trkpt>
      <trkpt lat="45.854558" lon="5.408586">
        <ele>197.0</ele>
      </trkpt>
      <trkpt lat="45.854603" lon="5.408535">
        <ele>197.4</ele>
      </trkpt>
      <trkpt lat="45.855391" lon="5.407637">
        <ele>197.8</ele>
      </trkpt>
      <trkpt lat="45.857610" lon="5.405055">
        <ele>198.9</ele>
      </trkpt>
      <trkpt lat="45.859760" lon="5.401853">
        <ele>197.9</ele>
      </trkpt>
      <trkpt lat="45.860752" lon="5.399497">
        <ele>198.2</ele>
      </trkpt>
      <trkpt lat="45.862158" lon="5.395708">
        <ele>198.3</ele>
      </trkpt>
      <trkpt lat="45.865451" lon="5.388516">
        <ele>198.2</ele>
      </trkpt>
      <trkpt lat="45.866529" lon="5.385153">
        <ele>197.6</ele>
      </trkpt>
      <trkpt lat="45.868879" lon="5.383153">
        <ele>197.7</ele>
      </trkpt>
      <trkpt lat="45.869471" lon="5.381888">
        <ele>197.8</ele>
      </trkpt>
      <trkpt lat="45.870383" lon="5.379447">
        <ele>198.0</ele>
      </trkpt>
      <trkpt lat="45.870383" lon="5.379447">
        <ele>198.3</ele>
      </trkpt>
      <trkpt lat="45.870431" lon="5.379317">
        <ele>197.8</ele>
      </trkpt>
      <trkpt lat="45.870432" lon="5.379316">
        <ele>197.3</ele>
      </trkpt>
      <trkpt lat="45.870762" lon="5.378431">
        <ele>196.9</ele>
      </trkpt>
      <trkpt lat="45.872055" lon="5.376456">
        <ele>196.5</ele>
      </trkpt>
      <trkpt lat="45.873495" lon="5.374734">
        <ele>196.0</ele>
      </trkpt>
      <trkpt lat="45.876433" lon="5.370742">
        <ele>196.0</ele>
      </trkpt>
      <trkpt lat="45.877427" lon="5.367607">
        <ele>196.1</ele>
      </trkpt>
      <trkpt lat="45.877787" lon="5.366617">
        <ele>195.9</ele>
      </trkpt>
      <trkpt lat="45.879862" lon="5.364092">
        <ele>195.4</ele>
      </trkpt>
      <trkpt lat="45.880578" lon="5.363024">
        <ele>195.3</ele>
      </trkpt>
      <trkpt lat="45.881336" lon="5.360446">
        <ele>195.9</ele>
      </trkpt>
      <trkpt lat="45.882748" lon="5.357020">
        <ele>197.1</ele>
      </trkpt>
      <trkpt lat="45.885209" lon="5.353964">
        <ele>197.7</ele>
      </trkpt>
      <trkpt lat="45.885594" lon="5.352878">
        <ele>198.1</ele>
      </trkpt>
      <trkpt lat="45.885493" lon="5.351820">
        <ele>198.4</ele>
      </trkpt>
      <trkpt lat="45.885486" lon="5.351739">
        <ele>198.0</ele>
      </trkpt>
      <trkpt lat="45.885483" lon="5.351712">
        <ele>197.0</ele>
      </trkpt>
      <trkpt lat="45.885483" lon="5.351712">
        <ele>198.1</ele>
      </trkpt>
      <trkpt lat="45.885483" lon="5.351711">
        <ele>199.9</ele>
      </trkpt>
      <trkpt lat="45.885118" lon="5.349839">
        <ele>201.6</ele>
      </trkpt>
      <trkpt lat="45.884986" lon="5.347585">
        <ele>203.0</ele>
      </trkpt>
      <trkpt lat="45.884744" lon="5.347243">
        <ele>202.3</ele>
      </trkpt>
      <trkpt lat="45.884275" lon="5.347453">
        <ele>200.4</ele>
      </trkpt>
      <trkpt lat="45.882742" lon="5.347567">
        <ele>197.9</ele>
      </trkpt>
      <trkpt lat="45.882721" lon="5.347569">
        <ele>195.6</ele>
      </trkpt>
      <trkpt lat="45.882581" lon="5.347565">
        <ele>195.8</ele>
      </trkpt>
      <trkpt lat="45.882567" lon="5.347565">
        <ele>196.7</ele>
      </trkpt>
      <trkpt lat="45.881893" lon="5.347542">
        <ele>197.8</ele>
      </trkpt>
      <trkpt lat="45.879984" lon="5.347542">
        <ele>199.0</ele>
      </trkpt>
      <trkpt lat="45.879222" lon="5.347548">
        <ele>200.3</ele>
      </trkpt>
      <trkpt lat="45.879187" lon="5.347549">
        <ele>199.3</ele>
      </trkpt>
      <trkpt lat="45.878751" lon="5.347551">
        <ele>199.7</ele>
      </trkpt>
      <trkpt lat="45.878733" lon="5.347551">
        <ele>200.0</ele>
      </trkpt>
      <trkpt lat="45.878713" lon="5.347548">
        <ele>200.3</ele>
      </trkpt>
      <trkpt lat="45.878466" lon="5.347512">
        <ele>200.5</ele>
      </trkpt>
      <trkpt lat="45.877972" lon="5.347403">
        <ele>200.7</ele>
      </trkpt>
      <trkpt lat="45.877970" lon="5.347402">
        <ele>201.2</ele>
      </trkpt>
      <trkpt lat="45.877613" lon="5.347273">
        <ele>201.8</ele>
      </trkpt>
      <trkpt lat="45.877146" lon="5.346991">
        <ele>202.6</ele>
      </trkpt>
      <trkpt lat="45.876279" lon="5.346386">
        <ele>203.8</ele>
      </trkpt>
      <trkpt lat="45.876226" lon="5.346348">
        <ele>204.7</ele>
      </trkpt>
      <trkpt lat="45.875224" lon="5.345631">
        <ele>205.3</ele>
      </trkpt>
      <trkpt lat="45.873963" lon="5.344747">
        <ele>205.7</ele>
      </trkpt>
      <trkpt lat="45.873133" lon="5.344155">
        <ele>206.2</ele>
      </trkpt>
      <trkpt lat="45.872067" lon="5.343388">
        <ele>206.6</ele>
      </trkpt>
      <trkpt lat="45.871676" lon="5.343133">
        <ele>208.2</ele>
      </trkpt>
      <trkpt lat="45.871364" lon="5.343028">
        <ele>209.7</ele>
      </trkpt>
      <trkpt lat="45.871247" lon="5.342973">
        <ele>210.8</ele>
      </trkpt>
      <trkpt lat="45.871214" lon="5.342929">
        <ele>212.5</ele>
      </trkpt>
      <trkpt lat="45.871033" lon="5.342691">
        <ele>212.7</ele>
      </trkpt>
      <trkpt lat="45.870771" lon="5.342369">
        <ele>212.5</ele>
      </trkpt>
      <trkpt lat="45.870577" lon="5.342120">
        <ele>212.4</ele>
      </trkpt>
      <trkpt lat="45.870491" lon="5.342009">
        <ele>211.6</ele>
      </trkpt>
      <trkpt lat="45.870490" lon="5.342008">
        <ele>210.0</ele>
      </trkpt>
      <trkpt lat="45.870387" lon="5.341876">
        <ele>209.4</ele>
      </trkpt>
      <trkpt lat="45.869825" lon="5.341054">
        <ele>208.0</ele>
      </trkpt>
      <trkpt lat="45.869300" lon="5.340244">
        <ele>206.7</ele>
      </trkpt>
      <trkpt lat="45.868725" lon="5.339367">
        <ele>206.5</ele>
      </trkpt>
      <trkpt lat="45.868065" lon="5.338349">
        <ele>206.3</ele>
      </trkpt>
      <trkpt lat="45.868057" lon="5.338337">
        <ele>206.1</ele>
      </trkpt>
      <trkpt lat="45.867859" lon="5.338190">
        <ele>206.0</ele>
      </trkpt>
      <trkpt lat="45.867464" lon="5.337935">
        <ele>205.7</ele>
      </trkpt>
      <trkpt lat="45.867071" lon="5.337723">
        <ele>205.5</ele>
      </trkpt>
      <trkpt lat="45.866558" lon="5.337405">
        <ele>205.3</ele>
      </trkpt>
      <trkpt lat="45.866183" lon="5.337213">
        <ele>205.2</ele>
      </trkpt>
      <trkpt lat="45.865665" lon="5.336868">
        <ele>205.2</ele>
      </trkpt>
      <trkpt lat="45.865053" lon="5.336600">
        <ele>205.5</ele>
      </trkpt>
      <trkpt lat="45.864850" lon="5.336542">
        <ele>205.8</ele>
      </trkpt>
      <trkpt lat="45.864463" lon="5.336460">
        <ele>206.8</ele>
      </trkpt>
      <trkpt lat="45.863777" lon="5.336289">
        <ele>207.7</ele>
      </trkpt>
      <trkpt lat="45.863399" lon="5.336187">
        <ele>208.9</ele>
      </trkpt>
      <trkpt lat="45.863388" lon="5.336184">
        <ele>209.8</ele>
      </trkpt>
      <trkpt lat="45.862767" lon="5.335989">
        <ele>210.7</ele>
      </trkpt>
      <trkpt lat="45.862532" lon="5.335914">
        <ele>210.0</ele>
      </trkpt>
      <trkpt lat="45.862336" lon="5.335798">
        <ele>210.2</ele>
      </trkpt>
      <trkpt lat="45.862104" lon="5.335742">
        <ele>210.3</ele>
      </trkpt>
      <trkpt lat="45.861705" lon="5.335687">
        <ele>210.3</ele>
      </trkpt>
      <trkpt lat="45.861069" lon="5.335579">
        <ele>209.7</ele>
      </trkpt>
      <trkpt lat="45.860882" lon="5.335540">
        <ele>209.9</ele>
      </trkpt>
      <trkpt lat="45.860542" lon="5.335405">
        <ele>209.3</ele>
      </trkpt>
      <trkpt lat="45.860037" lon="5.335167">
        <ele>208.5</ele>
      </trkpt>
      <trkpt lat="45.859481" lon="5.334838">
        <ele>207.8</ele>
      </trkpt>
      <trkpt lat="45.858635" lon="5.334187">
        <ele>207.6</ele>
      </trkpt>
      <trkpt lat="45.858169" lon="5.333864">
        <ele>207.5</ele>
      </trkpt>
      <trkpt lat="45.857515" lon="5.333523">
        <ele>207.8</ele>
      </trkpt>
      <trkpt lat="45.856940" lon="5.333210">
        <ele>208.0</ele>
      </trkpt>
      <trkpt lat="45.855976" lon="5.332707">
        <ele>208.2</ele>
      </trkpt>
      <trkpt lat="45.855739" lon="5.332697">
        <ele>208.4</ele>
      </trkpt>
      <trkpt lat="45.855691" lon="5.332630">
        <ele>208.5</ele>
      </trkpt>
      <trkpt lat="45.855180" lon="5.332501">
        <ele>208.3</ele>
      </trkpt>
      <trkpt lat="45.854626" lon="5.332399">
        <ele>208.1</ele>
      </trkpt>
      <trkpt lat="45.854536" lon="5.332324">
        <ele>208.0</ele>
      </trkpt>
      <trkpt lat="45.854382" lon="5.332284">
        <ele>207.8</ele>
      </trkpt>
      <trkpt lat="45.854112" lon="5.332136">
        <ele>207.8</ele>
      </trkpt>
      <trkpt lat="45.853841" lon="5.331987">
        <ele>207.8</ele>
      </trkpt>
      <trkpt lat="45.853587" lon="5.331925">
        <ele>207.9</ele>
      </trkpt>
      <trkpt lat="45.853350" lon="5.331908">
        <ele>208.1</ele>
      </trkpt>
      <trkpt lat="45.853229" lon="5.331951">
        <ele>208.6</ele>
      </trkpt>
    </trkseg>
  </trk>
</gpx>
