<?xml version="1.0" encoding="UTF-8"?>
<gpx xmlns="http://www.topografix.com/GPX/1/1" version="1.1" creator="France Vélo Tourisme">
  <metadata>
    <name>La Balme-les-Grottes à Jons</name>
  </metadata>
  <trk>
    <name>La Balme-les-Grottes à Jons</name>
    <trkseg>
      <trkpt lat="45.853229" lon="5.331951">
        <ele>208.6</ele>
      </trkpt>
      <trkpt lat="45.853043" lon="5.331840">
        <ele>208.9</ele>
      </trkpt>
      <trkpt lat="45.853036" lon="5.331837">
        <ele>208.5</ele>
      </trkpt>
      <trkpt lat="45.852640" lon="5.331726">
        <ele>208.2</ele>
      </trkpt>
      <trkpt lat="45.852556" lon="5.331702">
        <ele>208.0</ele>
      </trkpt>
      <trkpt lat="45.852362" lon="5.331625">
        <ele>207.9</ele>
      </trkpt>
      <trkpt lat="45.852120" lon="5.331530">
        <ele>207.8</ele>
      </trkpt>
      <trkpt lat="45.851860" lon="5.331404">
        <ele>208.0</ele>
      </trkpt>
      <trkpt lat="45.851597" lon="5.331147">
        <ele>208.2</ele>
      </trkpt>
      <trkpt lat="45.851494" lon="5.330935">
        <ele>208.2</ele>
      </trkpt>
      <trkpt lat="45.851493" lon="5.330880">
        <ele>208.0</ele>
      </trkpt>
      <trkpt lat="45.851491" lon="5.330789">
        <ele>207.6</ele>
      </trkpt>
      <trkpt lat="45.851565" lon="5.330305">
        <ele>207.5</ele>
      </trkpt>
      <trkpt lat="45.851652" lon="5.329737">
        <ele>207.5</ele>
      </trkpt>
      <trkpt lat="45.851779" lon="5.328813">
        <ele>207.2</ele>
      </trkpt>
      <trkpt lat="45.851792" lon="5.328516">
        <ele>207.1</ele>
      </trkpt>
      <trkpt lat="45.851799" lon="5.328330">
        <ele>207.1</ele>
      </trkpt>
      <trkpt lat="45.851823" lon="5.327947">
        <ele>207.0</ele>
      </trkpt>
      <trkpt lat="45.851824" lon="5.327940">
        <ele>206.1</ele>
      </trkpt>
      <trkpt lat="45.851828" lon="5.327725">
        <ele>205.7</ele>
      </trkpt>
      <trkpt lat="45.851492" lon="5.326858">
        <ele>205.3</ele>
      </trkpt>
      <trkpt lat="45.851446" lon="5.326740">
        <ele>205.9</ele>
      </trkpt>
      <trkpt lat="45.851084" lon="5.325820">
        <ele>206.2</ele>
      </trkpt>
      <trkpt lat="45.850721" lon="5.324922">
        <ele>205.7</ele>
      </trkpt>
      <trkpt lat="45.850347" lon="5.323823">
        <ele>205.7</ele>
      </trkpt>
      <trkpt lat="45.850076" lon="5.323198">
        <ele>205.4</ele>
      </trkpt>
      <trkpt lat="45.850010" lon="5.322987">
        <ele>203.7</ele>
      </trkpt>
      <trkpt lat="45.850012" lon="5.322975">
        <ele>202.1</ele>
      </trkpt>
      <trkpt lat="45.850027" lon="5.322839">
        <ele>201.9</ele>
      </trkpt>
      <trkpt lat="45.850044" lon="5.322692">
        <ele>201.2</ele>
      </trkpt>
      <trkpt lat="45.850056" lon="5.322590">
        <ele>200.7</ele>
      </trkpt>
      <trkpt lat="45.850111" lon="5.322338">
        <ele>200.8</ele>
      </trkpt>
      <trkpt lat="45.850245" lon="5.321731">
        <ele>201.7</ele>
      </trkpt>
      <trkpt lat="45.850406" lon="5.321018">
        <ele>201.6</ele>
      </trkpt>
      <trkpt lat="45.850527" lon="5.318838">
        <ele>201.8</ele>
      </trkpt>
      <trkpt lat="45.850582" lon="5.317815">
        <ele>201.5</ele>
      </trkpt>
      <trkpt lat="45.850662" lon="5.316332">
        <ele>201.3</ele>
      </trkpt>
      <trkpt lat="45.850662" lon="5.315951">
        <ele>200.3</ele>
      </trkpt>
      <trkpt lat="45.850652" lon="5.315926">
        <ele>200.1</ele>
      </trkpt>
      <trkpt lat="45.850517" lon="5.315608">
        <ele>199.5</ele>
      </trkpt>
      <trkpt lat="45.850013" lon="5.315022">
        <ele>199.3</ele>
      </trkpt>
      <trkpt lat="45.849631" lon="5.314571">
        <ele>199.4</ele>
      </trkpt>
      <trkpt lat="45.849149" lon="5.314143">
        <ele>200.1</ele>
      </trkpt>
      <trkpt lat="45.848969" lon="5.314015">
        <ele>200.7</ele>
      </trkpt>
      <trkpt lat="45.848635" lon="5.313648">
        <ele>201.5</ele>
      </trkpt>
      <trkpt lat="45.848481" lon="5.313449">
        <ele>202.1</ele>
      </trkpt>
      <trkpt lat="45.848343" lon="5.313272">
        <ele>202.7</ele>
      </trkpt>
      <trkpt lat="45.848191" lon="5.313150">
        <ele>202.3</ele>
      </trkpt>
      <trkpt lat="45.847943" lon="5.312950">
        <ele>201.8</ele>
      </trkpt>
      <trkpt lat="45.847572" lon="5.312516">
        <ele>201.5</ele>
      </trkpt>
      <trkpt lat="45.847328" lon="5.312193">
        <ele>201.4</ele>
      </trkpt>
      <trkpt lat="45.847103" lon="5.311953">
        <ele>201.1</ele>
      </trkpt>
      <trkpt lat="45.845829" lon="5.310801">
        <ele>201.3</ele>
      </trkpt>
      <trkpt lat="45.845820" lon="5.310793">
        <ele>202.0</ele>
      </trkpt>
      <trkpt lat="45.845564" lon="5.310535">
        <ele>202.4</ele>
      </trkpt>
      <trkpt lat="45.845435" lon="5.310377">
        <ele>202.4</ele>
      </trkpt>
      <trkpt lat="45.845352" lon="5.310278">
        <ele>202.3</ele>
      </trkpt>
      <trkpt lat="45.845246" lon="5.310152">
        <ele>202.2</ele>
      </trkpt>
      <trkpt lat="45.844691" lon="5.309585">
        <ele>201.9</ele>
      </trkpt>
      <trkpt lat="45.844168" lon="5.309071">
        <ele>201.6</ele>
      </trkpt>
      <trkpt lat="45.843857" lon="5.308732">
        <ele>201.4</ele>
      </trkpt>
      <trkpt lat="45.843497" lon="5.308141">
        <ele>201.3</ele>
      </trkpt>
      <trkpt lat="45.843269" lon="5.307946">
        <ele>201.1</ele>
      </trkpt>
      <trkpt lat="45.843134" lon="5.307807">
        <ele>200.8</ele>
      </trkpt>
      <trkpt lat="45.842699" lon="5.307490">
        <ele>200.6</ele>
      </trkpt>
      <trkpt lat="45.842323" lon="5.307322">
        <ele>200.4</ele>
      </trkpt>
      <trkpt lat="45.842097" lon="5.307210">
        <ele>200.3</ele>
      </trkpt>
      <trkpt lat="45.841880" lon="5.307032">
        <ele>200.4</ele>
      </trkpt>
      <trkpt lat="45.841388" lon="5.306381">
        <ele>200.4</ele>
      </trkpt>
      <trkpt lat="45.841080" lon="5.306064">
        <ele>200.8</ele>
      </trkpt>
      <trkpt lat="45.840887" lon="5.305911">
        <ele>201.0</ele>
      </trkpt>
      <trkpt lat="45.840591" lon="5.305722">
        <ele>201.2</ele>
      </trkpt>
      <trkpt lat="45.840039" lon="5.305390">
        <ele>201.5</ele>
      </trkpt>
      <trkpt lat="45.839460" lon="5.305088">
        <ele>202.2</ele>
      </trkpt>
      <trkpt lat="45.838912" lon="5.304764">
        <ele>202.5</ele>
      </trkpt>
      <trkpt lat="45.837999" lon="5.304193">
        <ele>202.9</ele>
      </trkpt>
      <trkpt lat="45.837757" lon="5.304041">
        <ele>203.0</ele>
      </trkpt>
      <trkpt lat="45.837111" lon="5.303677">
        <ele>202.8</ele>
      </trkpt>
      <trkpt lat="45.835444" lon="5.302711">
        <ele>202.3</ele>
      </trkpt>
      <trkpt lat="45.833397" lon="5.301544">
        <ele>201.7</ele>
      </trkpt>
      <trkpt lat="45.833290" lon="5.301481">
        <ele>201.2</ele>
      </trkpt>
      <trkpt lat="45.832623" lon="5.301088">
        <ele>200.9</ele>
      </trkpt>
      <trkpt lat="45.832498" lon="5.301030">
        <ele>200.7</ele>
      </trkpt>
      <trkpt lat="45.831983" lon="5.300795">
        <ele>200.6</ele>
      </trkpt>
      <trkpt lat="45.831729" lon="5.300698">
        <ele>200.7</ele>
      </trkpt>
      <trkpt lat="45.830926" lon="5.300393">
        <ele>200.8</ele>
      </trkpt>
      <trkpt lat="45.830924" lon="5.300392">
        <ele>201.1</ele>
      </trkpt>
      <trkpt lat="45.830287" lon="5.300137">
        <ele>201.7</ele>
      </trkpt>
      <trkpt lat="45.830015" lon="5.299984">
        <ele>201.8</ele>
      </trkpt>
      <trkpt lat="45.829599" lon="5.299738">
        <ele>202.1</ele>
      </trkpt>
      <trkpt lat="45.829498" lon="5.299679">
        <ele>202.1</ele>
      </trkpt>
      <trkpt lat="45.829422" lon="5.299634">
        <ele>201.7</ele>
      </trkpt>
      <trkpt lat="45.828362" lon="5.299052">
        <ele>201.1</ele>
      </trkpt>
      <trkpt lat="45.827953" lon="5.300081">
        <ele>200.2</ele>
      </trkpt>
      <trkpt lat="45.827837" lon="5.300723">
        <ele>200.0</ele>
      </trkpt>
      <trkpt lat="45.826225" lon="5.299633">
        <ele>202.1</ele>
      </trkpt>
      <trkpt lat="45.824361" lon="5.302269">
        <ele>203.7</ele>
      </trkpt>
      <trkpt lat="45.823422" lon="5.303253">
        <ele>204.8</ele>
      </trkpt>
      <trkpt lat="45.822089" lon="5.301298">
        <ele>206.7</ele>
      </trkpt>
      <trkpt lat="45.821656" lon="5.301092">
        <ele>208.9</ele>
      </trkpt>
      <trkpt lat="45.821417" lon="5.300644">
        <ele>208.3</ele>
      </trkpt>
      <trkpt lat="45.819608" lon="5.299169">
        <ele>208.8</ele>
      </trkpt>
      <trkpt lat="45.818665" lon="5.298838">
        <ele>210.1</ele>
      </trkpt>
      <trkpt lat="45.817748" lon="5.297881">
        <ele>210.9</ele>
      </trkpt>
      <trkpt lat="45.817106" lon="5.297275">
        <ele>210.9</ele>
      </trkpt>
      <trkpt lat="45.817014" lon="5.297188">
        <ele>211.5</ele>
      </trkpt>
      <trkpt lat="45.816865" lon="5.297071">
        <ele>211.9</ele>
      </trkpt>
      <trkpt lat="45.816861" lon="5.297068">
        <ele>211.2</ele>
      </trkpt>
      <trkpt lat="45.816838" lon="5.297050">
        <ele>210.7</ele>
      </trkpt>
      <trkpt lat="45.816673" lon="5.296967">
        <ele>210.1</ele>
      </trkpt>
      <trkpt lat="45.816346" lon="5.296954">
        <ele>209.6</ele>
      </trkpt>
      <trkpt lat="45.816179" lon="5.296931">
        <ele>209.1</ele>
      </trkpt>
      <trkpt lat="45.816168" lon="5.296930">
        <ele>209.5</ele>
      </trkpt>
      <trkpt lat="45.815862" lon="5.296646">
        <ele>209.9</ele>
      </trkpt>
      <trkpt lat="45.815633" lon="5.296353">
        <ele>210.2</ele>
      </trkpt>
      <trkpt lat="45.815493" lon="5.296114">
        <ele>210.5</ele>
      </trkpt>
      <trkpt lat="45.815333" lon="5.295964">
        <ele>210.7</ele>
      </trkpt>
      <trkpt lat="45.815327" lon="5.295958">
        <ele>210.7</ele>
      </trkpt>
      <trkpt lat="45.815292" lon="5.295925">
        <ele>210.8</ele>
      </trkpt>
      <trkpt lat="45.815291" lon="5.295924">
        <ele>210.8</ele>
      </trkpt>
      <trkpt lat="45.815232" lon="5.295934">
        <ele>210.8</ele>
      </trkpt>
      <trkpt lat="45.815078" lon="5.295834">
        <ele>211.0</ele>
      </trkpt>
      <trkpt lat="45.814496" lon="5.295361">
        <ele>211.1</ele>
      </trkpt>
      <trkpt lat="45.814285" lon="5.295337">
        <ele>211.3</ele>
      </trkpt>
      <trkpt lat="45.814108" lon="5.295606">
        <ele>211.4</ele>
      </trkpt>
      <trkpt lat="45.813691" lon="5.296731">
        <ele>211.6</ele>
      </trkpt>
      <trkpt lat="45.813568" lon="5.296653">
        <ele>211.6</ele>
      </trkpt>
      <trkpt lat="45.813389" lon="5.296849">
        <ele>211.6</ele>
      </trkpt>
      <trkpt lat="45.813302" lon="5.297352">
        <ele>211.6</ele>
      </trkpt>
      <trkpt lat="45.813066" lon="5.298041">
        <ele>211.6</ele>
      </trkpt>
      <trkpt lat="45.812738" lon="5.298372">
        <ele>211.6</ele>
      </trkpt>
      <trkpt lat="45.812513" lon="5.298477">
        <ele>211.7</ele>
      </trkpt>
      <trkpt lat="45.812381" lon="5.298717">
        <ele>211.9</ele>
      </trkpt>
      <trkpt lat="45.811723" lon="5.297855">
        <ele>212.1</ele>
      </trkpt>
      <trkpt lat="45.811525" lon="5.297909">
        <ele>212.4</ele>
      </trkpt>
      <trkpt lat="45.811427" lon="5.298020">
        <ele>213.4</ele>
      </trkpt>
      <trkpt lat="45.810467" lon="5.299675">
        <ele>214.0</ele>
      </trkpt>
      <trkpt lat="45.810366" lon="5.299905">
        <ele>214.3</ele>
      </trkpt>
      <trkpt lat="45.810076" lon="5.300572">
        <ele>214.7</ele>
      </trkpt>
      <trkpt lat="45.809789" lon="5.301255">
        <ele>214.7</ele>
      </trkpt>
      <trkpt lat="45.809548" lon="5.301495">
        <ele>214.1</ele>
      </trkpt>
      <trkpt lat="45.809297" lon="5.301691">
        <ele>213.8</ele>
      </trkpt>
      <trkpt lat="45.809291" lon="5.301693">
        <ele>213.7</ele>
      </trkpt>
      <trkpt lat="45.809237" lon="5.301729">
        <ele>213.4</ele>
      </trkpt>
      <trkpt lat="45.809231" lon="5.301733">
        <ele>213.3</ele>
      </trkpt>
      <trkpt lat="45.809175" lon="5.301770">
        <ele>213.4</ele>
      </trkpt>
      <trkpt lat="45.809029" lon="5.301997">
        <ele>213.4</ele>
      </trkpt>
      <trkpt lat="45.808817" lon="5.302576">
        <ele>213.4</ele>
      </trkpt>
      <trkpt lat="45.808692" lon="5.302695">
        <ele>213.4</ele>
      </trkpt>
      <trkpt lat="45.808426" lon="5.302654">
        <ele>213.6</ele>
      </trkpt>
      <trkpt lat="45.808030" lon="5.302546">
        <ele>213.5</ele>
      </trkpt>
      <trkpt lat="45.807691" lon="5.302451">
        <ele>213.6</ele>
      </trkpt>
      <trkpt lat="45.806898" lon="5.302230">
        <ele>213.6</ele>
      </trkpt>
      <trkpt lat="45.805825" lon="5.301872">
        <ele>213.8</ele>
      </trkpt>
      <trkpt lat="45.805733" lon="5.301842">
        <ele>214.0</ele>
      </trkpt>
      <trkpt lat="45.804622" lon="5.301478">
        <ele>214.2</ele>
      </trkpt>
      <trkpt lat="45.804169" lon="5.301334">
        <ele>214.4</ele>
      </trkpt>
      <trkpt lat="45.803925" lon="5.301284">
        <ele>214.4</ele>
      </trkpt>
      <trkpt lat="45.803802" lon="5.301251">
        <ele>213.9</ele>
      </trkpt>
      <trkpt lat="45.804244" lon="5.299658">
        <ele>213.5</ele>
      </trkpt>
      <trkpt lat="45.804732" lon="5.296754">
        <ele>212.5</ele>
      </trkpt>
      <trkpt lat="45.804175" lon="5.295857">
        <ele>211.7</ele>
      </trkpt>
      <trkpt lat="45.804144" lon="5.295706">
        <ele>210.9</ele>
      </trkpt>
      <trkpt lat="45.804102" lon="5.295504">
        <ele>210.2</ele>
      </trkpt>
      <trkpt lat="45.804054" lon="5.295270">
        <ele>209.0</ele>
      </trkpt>
      <trkpt lat="45.804008" lon="5.294586">
        <ele>208.4</ele>
      </trkpt>
      <trkpt lat="45.803459" lon="5.292501">
        <ele>207.9</ele>
      </trkpt>
      <trkpt lat="45.803349" lon="5.292252">
        <ele>207.3</ele>
      </trkpt>
      <trkpt lat="45.803143" lon="5.291789">
        <ele>208.4</ele>
      </trkpt>
      <trkpt lat="45.803004" lon="5.291616">
        <ele>209.7</ele>
      </trkpt>
      <trkpt lat="45.802585" lon="5.291095">
        <ele>210.2</ele>
      </trkpt>
      <trkpt lat="45.802572" lon="5.291080">
        <ele>210.4</ele>
      </trkpt>
      <trkpt lat="45.802327" lon="5.291159">
        <ele>210.7</ele>
      </trkpt>
      <trkpt lat="45.802282" lon="5.291233">
        <ele>209.6</ele>
      </trkpt>
      <trkpt lat="45.801936" lon="5.291802">
        <ele>208.8</ele>
      </trkpt>
      <trkpt lat="45.801903" lon="5.291850">
        <ele>209.0</ele>
      </trkpt>
      <trkpt lat="45.801673" lon="5.292181">
        <ele>209.8</ele>
      </trkpt>
      <trkpt lat="45.801648" lon="5.292188">
        <ele>210.7</ele>
      </trkpt>
      <trkpt lat="45.800846" lon="5.292421">
        <ele>211.7</ele>
      </trkpt>
      <trkpt lat="45.800831" lon="5.292426">
        <ele>212.3</ele>
      </trkpt>
      <trkpt lat="45.800815" lon="5.292505">
        <ele>213.1</ele>
      </trkpt>
      <trkpt lat="45.800716" lon="5.293007">
        <ele>213.3</ele>
      </trkpt>
      <trkpt lat="45.800509" lon="5.293804">
        <ele>213.4</ele>
      </trkpt>
      <trkpt lat="45.800322" lon="5.294168">
        <ele>213.6</ele>
      </trkpt>
      <trkpt lat="45.800054" lon="5.294450">
        <ele>214.1</ele>
      </trkpt>
      <trkpt lat="45.799842" lon="5.294632">
        <ele>214.6</ele>
      </trkpt>
      <trkpt lat="45.799054" lon="5.295075">
        <ele>215.2</ele>
      </trkpt>
      <trkpt lat="45.798359" lon="5.295010">
        <ele>216.0</ele>
      </trkpt>
      <trkpt lat="45.797918" lon="5.295176">
        <ele>216.8</ele>
      </trkpt>
      <trkpt lat="45.797690" lon="5.295159">
        <ele>217.4</ele>
      </trkpt>
      <trkpt lat="45.797618" lon="5.295094">
        <ele>217.9</ele>
      </trkpt>
      <trkpt lat="45.797509" lon="5.294994">
        <ele>218.7</ele>
      </trkpt>
      <trkpt lat="45.797306" lon="5.294569">
        <ele>219.8</ele>
      </trkpt>
      <trkpt lat="45.797273" lon="5.294262">
        <ele>222.3</ele>
      </trkpt>
      <trkpt lat="45.797218" lon="5.293656">
        <ele>225.0</ele>
      </trkpt>
      <trkpt lat="45.797064" lon="5.293153">
        <ele>228.4</ele>
      </trkpt>
      <trkpt lat="45.797015" lon="5.292917">
        <ele>231.3</ele>
      </trkpt>
      <trkpt lat="45.797333" lon="5.292301">
        <ele>233.7</ele>
      </trkpt>
      <trkpt lat="45.796991" lon="5.292068">
        <ele>234.9</ele>
      </trkpt>
      <trkpt lat="45.796209" lon="5.290308">
        <ele>236.1</ele>
      </trkpt>
      <trkpt lat="45.795924" lon="5.289978">
        <ele>236.1</ele>
      </trkpt>
      <trkpt lat="45.795658" lon="5.289753">
        <ele>235.8</ele>
      </trkpt>
      <trkpt lat="45.795135" lon="5.289481">
        <ele>235.4</ele>
      </trkpt>
      <trkpt lat="45.794660" lon="5.288966">
        <ele>232.3</ele>
      </trkpt>
      <trkpt lat="45.794379" lon="5.287885">
        <ele>227.8</ele>
      </trkpt>
      <trkpt lat="45.794902" lon="5.285465">
        <ele>223.3</ele>
      </trkpt>
      <trkpt lat="45.795879" lon="5.282292">
        <ele>219.5</ele>
      </trkpt>
      <trkpt lat="45.796246" lon="5.280742">
        <ele>215.7</ele>
      </trkpt>
      <trkpt lat="45.796992" lon="5.278499">
        <ele>214.5</ele>
      </trkpt>
      <trkpt lat="45.796016" lon="5.277686">
        <ele>214.7</ele>
      </trkpt>
      <trkpt lat="45.796185" lon="5.277234">
        <ele>214.6</ele>
      </trkpt>
      <trkpt lat="45.796534" lon="5.276602">
        <ele>214.1</ele>
      </trkpt>
      <trkpt lat="45.796104" lon="5.276188">
        <ele>213.8</ele>
      </trkpt>
      <trkpt lat="45.795168" lon="5.276269">
        <ele>211.7</ele>
      </trkpt>
      <trkpt lat="45.795148" lon="5.275814">
        <ele>209.2</ele>
      </trkpt>
      <trkpt lat="45.794249" lon="5.275527">
        <ele>207.5</ele>
      </trkpt>
      <trkpt lat="45.792069" lon="5.275588">
        <ele>205.9</ele>
      </trkpt>
      <trkpt lat="45.791594" lon="5.275459">
        <ele>204.4</ele>
      </trkpt>
      <trkpt lat="45.791314" lon="5.275208">
        <ele>204.5</ele>
      </trkpt>
      <trkpt lat="45.788951" lon="5.271553">
        <ele>204.9</ele>
      </trkpt>
      <trkpt lat="45.787860" lon="5.269881">
        <ele>205.1</ele>
      </trkpt>
      <trkpt lat="45.787583" lon="5.269504">
        <ele>204.4</ele>
      </trkpt>
      <trkpt lat="45.787472" lon="5.269175">
        <ele>203.8</ele>
      </trkpt>
      <trkpt lat="45.786385" lon="5.265950">
        <ele>203.7</ele>
      </trkpt>
      <trkpt lat="45.785940" lon="5.264127">
        <ele>203.5</ele>
      </trkpt>
      <trkpt lat="45.785451" lon="5.261552">
        <ele>203.0</ele>
      </trkpt>
      <trkpt lat="45.785481" lon="5.260823">
        <ele>203.3</ele>
      </trkpt>
      <trkpt lat="45.784228" lon="5.257746">
        <ele>203.4</ele>
      </trkpt>
      <trkpt lat="45.783912" lon="5.256774">
        <ele>202.9</ele>
      </trkpt>
      <trkpt lat="45.783624" lon="5.256595">
        <ele>202.1</ele>
      </trkpt>
      <trkpt lat="45.783509" lon="5.255756">
        <ele>201.9</ele>
      </trkpt>
      <trkpt lat="45.783146" lon="5.254948">
        <ele>201.8</ele>
      </trkpt>
      <trkpt lat="45.781949" lon="5.252021">
        <ele>201.6</ele>
      </trkpt>
      <trkpt lat="45.781364" lon="5.250641">
        <ele>201.9</ele>
      </trkpt>
      <trkpt lat="45.781245" lon="5.250010">
        <ele>202.3</ele>
      </trkpt>
      <trkpt lat="45.780592" lon="5.248335">
        <ele>202.4</ele>
      </trkpt>
      <trkpt lat="45.779586" lon="5.246083">
        <ele>202.5</ele>
      </trkpt>
      <trkpt lat="45.778157" lon="5.243835">
        <ele>202.6</ele>
      </trkpt>
      <trkpt lat="45.777288" lon="5.241742">
        <ele>202.4</ele>
      </trkpt>
      <trkpt lat="45.777018" lon="5.241654">
        <ele>202.4</ele>
      </trkpt>
      <trkpt lat="45.776694" lon="5.241575">
        <ele>202.3</ele>
      </trkpt>
      <trkpt lat="45.776686" lon="5.241564">
        <ele>202.3</ele>
      </trkpt>
      <trkpt lat="45.776686" lon="5.241564">
        <ele>202.3</ele>
      </trkpt>
      <trkpt lat="45.776686" lon="5.241564">
        <ele>202.3</ele>
      </trkpt>
      <trkpt lat="45.776486" lon="5.241280">
        <ele>202.2</ele>
      </trkpt>
      <trkpt lat="45.775862" lon="5.240453">
        <ele>202.2</ele>
      </trkpt>
      <trkpt lat="45.775653" lon="5.240176">
        <ele>202.6</ele>
      </trkpt>
      <trkpt lat="45.775639" lon="5.240155">
        <ele>203.1</ele>
      </trkpt>
      <trkpt lat="45.775380" lon="5.239758">
        <ele>203.6</ele>
      </trkpt>
      <trkpt lat="45.775063" lon="5.239257">
        <ele>203.9</ele>
      </trkpt>
      <trkpt lat="45.774547" lon="5.238307">
        <ele>203.9</ele>
      </trkpt>
      <trkpt lat="45.773840" lon="5.236943">
        <ele>203.1</ele>
      </trkpt>
      <trkpt lat="45.773632" lon="5.236511">
        <ele>202.1</ele>
      </trkpt>
      <trkpt lat="45.773220" lon="5.235832">
        <ele>200.5</ele>
      </trkpt>
      <trkpt lat="45.773209" lon="5.235813">
        <ele>199.0</ele>
      </trkpt>
      <trkpt lat="45.772912" lon="5.235315">
        <ele>197.7</ele>
      </trkpt>
      <trkpt lat="45.772544" lon="5.234692">
        <ele>197.1</ele>
      </trkpt>
      <trkpt lat="45.772226" lon="5.234256">
        <ele>196.6</ele>
      </trkpt>
      <trkpt lat="45.771942" lon="5.233826">
        <ele>197.0</ele>
      </trkpt>
      <trkpt lat="45.771605" lon="5.233394">
        <ele>197.4</ele>
      </trkpt>
      <trkpt lat="45.770833" lon="5.232473">
        <ele>198.0</ele>
      </trkpt>
      <trkpt lat="45.770179" lon="5.231708">
        <ele>198.6</ele>
      </trkpt>
      <trkpt lat="45.769400" lon="5.230792">
        <ele>199.0</ele>
      </trkpt>
      <trkpt lat="45.769025" lon="5.230310">
        <ele>199.3</ele>
      </trkpt>
      <trkpt lat="45.768601" lon="5.229668">
        <ele>200.1</ele>
      </trkpt>
      <trkpt lat="45.768409" lon="5.229384">
        <ele>200.4</ele>
      </trkpt>
      <trkpt lat="45.767881" lon="5.228597">
        <ele>200.9</ele>
      </trkpt>
      <trkpt lat="45.767588" lon="5.228277">
        <ele>200.8</ele>
      </trkpt>
      <trkpt lat="45.767472" lon="5.228152">
        <ele>200.7</ele>
      </trkpt>
      <trkpt lat="45.767198" lon="5.227799">
        <ele>199.9</ele>
      </trkpt>
      <trkpt lat="45.767205" lon="5.227792">
        <ele>199.4</ele>
      </trkpt>
      <trkpt lat="45.766526" lon="5.226873">
        <ele>198.8</ele>
      </trkpt>
      <trkpt lat="45.766040" lon="5.226286">
        <ele>198.5</ele>
      </trkpt>
      <trkpt lat="45.765625" lon="5.225812">
        <ele>199.1</ele>
      </trkpt>
      <trkpt lat="45.765150" lon="5.225339">
        <ele>199.7</ele>
      </trkpt>
      <trkpt lat="45.763919" lon="5.224475">
        <ele>200.3</ele>
      </trkpt>
      <trkpt lat="45.764063" lon="5.223742">
        <ele>200.7</ele>
      </trkpt>
      <trkpt lat="45.764073" lon="5.223692">
        <ele>200.5</ele>
      </trkpt>
      <trkpt lat="45.764189" lon="5.223575">
        <ele>199.7</ele>
      </trkpt>
      <trkpt lat="45.764537" lon="5.223223">
        <ele>198.2</ele>
      </trkpt>
      <trkpt lat="45.764745" lon="5.223013">
        <ele>196.4</ele>
      </trkpt>
      <trkpt lat="45.765371" lon="5.222482">
        <ele>194.7</ele>
      </trkpt>
      <trkpt lat="45.765719" lon="5.222239">
        <ele>194.0</ele>
      </trkpt>
      <trkpt lat="45.765725" lon="5.222235">
        <ele>193.3</ele>
      </trkpt>
      <trkpt lat="45.765846" lon="5.222151">
        <ele>193.3</ele>
      </trkpt>
      <trkpt lat="45.765850" lon="5.222083">
        <ele>193.8</ele>
      </trkpt>
      <trkpt lat="45.765867" lon="5.221803">
        <ele>194.2</ele>
      </trkpt>
      <trkpt lat="45.765881" lon="5.221579">
        <ele>194.5</ele>
      </trkpt>
      <trkpt lat="45.765857" lon="5.221423">
        <ele>194.7</ele>
      </trkpt>
      <trkpt lat="45.765821" lon="5.221180">
        <ele>194.8</ele>
      </trkpt>
      <trkpt lat="45.765872" lon="5.221080">
        <ele>194.6</ele>
      </trkpt>
      <trkpt lat="45.766442" lon="5.221014">
        <ele>194.4</ele>
      </trkpt>
      <trkpt lat="45.766844" lon="5.220968">
        <ele>194.0</ele>
      </trkpt>
      <trkpt lat="45.766862" lon="5.219047">
        <ele>193.9</ele>
      </trkpt>
      <trkpt lat="45.766869" lon="5.219002">
        <ele>193.6</ele>
      </trkpt>
      <trkpt lat="45.766952" lon="5.217158">
        <ele>193.5</ele>
      </trkpt>
      <trkpt lat="45.766978" lon="5.216578">
        <ele>193.4</ele>
      </trkpt>
      <trkpt lat="45.767111" lon="5.215444">
        <ele>193.6</ele>
      </trkpt>
      <trkpt lat="45.767276" lon="5.214472">
        <ele>193.5</ele>
      </trkpt>
      <trkpt lat="45.767452" lon="5.213438">
        <ele>193.3</ele>
      </trkpt>
      <trkpt lat="45.767475" lon="5.213364">
        <ele>193.4</ele>
      </trkpt>
      <trkpt lat="45.767586" lon="5.213009">
        <ele>193.5</ele>
      </trkpt>
      <trkpt lat="45.767662" lon="5.212972">
        <ele>193.3</ele>
      </trkpt>
      <trkpt lat="45.767686" lon="5.212961">
        <ele>193.2</ele>
      </trkpt>
      <trkpt lat="45.767969" lon="5.212579">
        <ele>193.4</ele>
      </trkpt>
      <trkpt lat="45.768760" lon="5.211445">
        <ele>193.5</ele>
      </trkpt>
      <trkpt lat="45.768976" lon="5.211122">
        <ele>193.6</ele>
      </trkpt>
      <trkpt lat="45.769185" lon="5.210860">
        <ele>193.9</ele>
      </trkpt>
      <trkpt lat="45.769793" lon="5.210275">
        <ele>194.2</ele>
      </trkpt>
      <trkpt lat="45.770076" lon="5.210513">
        <ele>193.3</ele>
      </trkpt>
      <trkpt lat="45.770110" lon="5.210519">
        <ele>192.4</ele>
      </trkpt>
      <trkpt lat="45.770206" lon="5.210535">
        <ele>191.9</ele>
      </trkpt>
      <trkpt lat="45.770217" lon="5.210537">
        <ele>191.3</ele>
      </trkpt>
      <trkpt lat="45.770527" lon="5.209780">
        <ele>190.5</ele>
      </trkpt>
      <trkpt lat="45.770848" lon="5.208942">
        <ele>191.1</ele>
      </trkpt>
      <trkpt lat="45.770880" lon="5.208861">
        <ele>192.6</ele>
      </trkpt>
      <trkpt lat="45.769816" lon="5.208124">
        <ele>193.7</ele>
      </trkpt>
      <trkpt lat="45.768300" lon="5.207697">
        <ele>194.6</ele>
      </trkpt>
      <trkpt lat="45.768448" lon="5.206575">
        <ele>195.2</ele>
      </trkpt>
      <trkpt lat="45.768769" lon="5.206240">
        <ele>195.2</ele>
      </trkpt>
      <trkpt lat="45.768789" lon="5.205975">
        <ele>194.8</ele>
      </trkpt>
      <trkpt lat="45.769029" lon="5.205592">
        <ele>194.3</ele>
      </trkpt>
      <trkpt lat="45.768911" lon="5.205165">
        <ele>194.0</ele>
      </trkpt>
      <trkpt lat="45.768895" lon="5.204809">
        <ele>194.7</ele>
      </trkpt>
      <trkpt lat="45.769211" lon="5.201198">
        <ele>195.6</ele>
      </trkpt>
      <trkpt lat="45.769221" lon="5.199848">
        <ele>196.1</ele>
      </trkpt>
      <trkpt lat="45.769217" lon="5.199829">
        <ele>196.6</ele>
      </trkpt>
      <trkpt lat="45.769196" lon="5.199732">
        <ele>197.1</ele>
      </trkpt>
      <trkpt lat="45.769192" lon="5.199712">
        <ele>197.2</ele>
      </trkpt>
      <trkpt lat="45.769176" lon="5.199632">
        <ele>197.6</ele>
      </trkpt>
      <trkpt lat="45.768749" lon="5.198828">
        <ele>198.1</ele>
      </trkpt>
      <trkpt lat="45.767713" lon="5.197530">
        <ele>198.5</ele>
      </trkpt>
      <trkpt lat="45.767879" lon="5.197106">
        <ele>198.9</ele>
      </trkpt>
      <trkpt lat="45.768000" lon="5.196287">
        <ele>199.4</ele>
      </trkpt>
      <trkpt lat="45.767895" lon="5.195589">
        <ele>199.2</ele>
      </trkpt>
      <trkpt lat="45.768638" lon="5.194495">
        <ele>199.0</ele>
      </trkpt>
      <trkpt lat="45.767899" lon="5.193398">
        <ele>198.7</ele>
      </trkpt>
      <trkpt lat="45.767714" lon="5.193428">
        <ele>198.3</ele>
      </trkpt>
      <trkpt lat="45.767154" lon="5.192601">
        <ele>197.8</ele>
      </trkpt>
      <trkpt lat="45.766801" lon="5.192549">
        <ele>198.1</ele>
      </trkpt>
      <trkpt lat="45.766838" lon="5.191314">
        <ele>197.8</ele>
      </trkpt>
      <trkpt lat="45.766384" lon="5.189011">
        <ele>197.3</ele>
      </trkpt>
      <trkpt lat="45.766304" lon="5.188446">
        <ele>197.5</ele>
      </trkpt>
      <trkpt lat="45.766218" lon="5.186023">
        <ele>199.1</ele>
      </trkpt>
      <trkpt lat="45.766205" lon="5.185196">
        <ele>200.0</ele>
      </trkpt>
      <trkpt lat="45.766238" lon="5.184687">
        <ele>199.8</ele>
      </trkpt>
      <trkpt lat="45.766337" lon="5.183882">
        <ele>200.1</ele>
      </trkpt>
      <trkpt lat="45.766214" lon="5.183179">
        <ele>199.3</ele>
      </trkpt>
      <trkpt lat="45.766237" lon="5.182907">
        <ele>198.4</ele>
      </trkpt>
      <trkpt lat="45.767064" lon="5.182991">
        <ele>198.1</ele>
      </trkpt>
      <trkpt lat="45.768627" lon="5.182270">
        <ele>199.4</ele>
      </trkpt>
      <trkpt lat="45.769488" lon="5.180235">
        <ele>200.8</ele>
      </trkpt>
      <trkpt lat="45.770979" lon="5.176164">
        <ele>202.5</ele>
      </trkpt>
      <trkpt lat="45.771022" lon="5.175817">
        <ele>203.0</ele>
      </trkpt>
      <trkpt lat="45.771007" lon="5.175024">
        <ele>203.8</ele>
      </trkpt>
      <trkpt lat="45.771560" lon="5.173845">
        <ele>204.6</ele>
      </trkpt>
      <trkpt lat="45.772171" lon="5.172737">
        <ele>205.3</ele>
      </trkpt>
      <trkpt lat="45.772511" lon="5.172120">
        <ele>209.3</ele>
      </trkpt>
      <trkpt lat="45.772969" lon="5.171832">
        <ele>213.3</ele>
      </trkpt>
      <trkpt lat="45.775725" lon="5.170441">
        <ele>217.4</ele>
      </trkpt>
      <trkpt lat="45.775910" lon="5.170457">
        <ele>221.7</ele>
      </trkpt>
      <trkpt lat="45.776366" lon="5.170892">
        <ele>226.1</ele>
      </trkpt>
      <trkpt lat="45.776603" lon="5.170987">
        <ele>227.3</ele>
      </trkpt>
      <trkpt lat="45.776882" lon="5.171006">
        <ele>228.5</ele>
      </trkpt>
      <trkpt lat="45.776923" lon="5.170752">
        <ele>229.1</ele>
      </trkpt>
      <trkpt lat="45.776945" lon="5.170523">
        <ele>229.8</ele>
      </trkpt>
      <trkpt lat="45.776954" lon="5.170336">
        <ele>230.4</ele>
      </trkpt>
      <trkpt lat="45.777048" lon="5.170004">
        <ele>230.8</ele>
      </trkpt>
      <trkpt lat="45.777057" lon="5.169974">
        <ele>231.0</ele>
      </trkpt>
      <trkpt lat="45.777169" lon="5.169732">
        <ele>230.4</ele>
      </trkpt>
      <trkpt lat="45.777517" lon="5.169899">
        <ele>228.9</ele>
      </trkpt>
      <trkpt lat="45.778688" lon="5.170387">
        <ele>225.2</ele>
      </trkpt>
      <trkpt lat="45.779007" lon="5.170502">
        <ele>221.8</ele>
      </trkpt>
      <trkpt lat="45.779878" lon="5.170792">
        <ele>218.5</ele>
      </trkpt>
      <trkpt lat="45.780002" lon="5.170882">
        <ele>216.7</ele>
      </trkpt>
      <trkpt lat="45.779882" lon="5.171260">
        <ele>215.0</ele>
      </trkpt>
      <trkpt lat="45.779812" lon="5.171470">
        <ele>215.3</ele>
      </trkpt>
      <trkpt lat="45.779699" lon="5.171781">
        <ele>215.5</ele>
      </trkpt>
      <trkpt lat="45.779599" lon="5.172015">
        <ele>216.1</ele>
      </trkpt>
      <trkpt lat="45.779821" lon="5.172229">
        <ele>215.9</ele>
      </trkpt>
      <trkpt lat="45.779984" lon="5.172465">
        <ele>215.9</ele>
      </trkpt>
      <trkpt lat="45.780180" lon="5.172779">
        <ele>216.5</ele>
      </trkpt>
      <trkpt lat="45.780488" lon="5.173175">
        <ele>217.3</ele>
      </trkpt>
      <trkpt lat="45.780652" lon="5.173360">
        <ele>218.2</ele>
      </trkpt>
      <trkpt lat="45.780921" lon="5.173592">
        <ele>219.5</ele>
      </trkpt>
      <trkpt lat="45.781238" lon="5.173834">
        <ele>221.1</ele>
      </trkpt>
      <trkpt lat="45.781702" lon="5.174193">
        <ele>222.5</ele>
      </trkpt>
      <trkpt lat="45.782285" lon="5.174557">
        <ele>223.6</ele>
      </trkpt>
      <trkpt lat="45.782827" lon="5.174910">
        <ele>224.4</ele>
      </trkpt>
      <trkpt lat="45.782955" lon="5.174982">
        <ele>224.8</ele>
      </trkpt>
      <trkpt lat="45.783065" lon="5.175060">
        <ele>225.3</ele>
      </trkpt>
      <trkpt lat="45.783223" lon="5.175145">
        <ele>225.7</ele>
      </trkpt>
      <trkpt lat="45.783486" lon="5.175268">
        <ele>226.0</ele>
      </trkpt>
      <trkpt lat="45.783736" lon="5.175376">
        <ele>226.2</ele>
      </trkpt>
      <trkpt lat="45.784008" lon="5.175479">
        <ele>226.3</ele>
      </trkpt>
      <trkpt lat="45.784176" lon="5.175554">
        <ele>226.0</ele>
      </trkpt>
      <trkpt lat="45.784558" lon="5.175696">
        <ele>225.7</ele>
      </trkpt>
      <trkpt lat="45.784795" lon="5.175791">
        <ele>225.4</ele>
      </trkpt>
      <trkpt lat="45.784942" lon="5.175829">
        <ele>222.8</ele>
      </trkpt>
      <trkpt lat="45.785055" lon="5.175874">
        <ele>220.4</ele>
      </trkpt>
      <trkpt lat="45.788231" lon="5.175575">
        <ele>218.0</ele>
      </trkpt>
      <trkpt lat="45.788459" lon="5.175491">
        <ele>215.8</ele>
      </trkpt>
      <trkpt lat="45.788862" lon="5.175319">
        <ele>213.8</ele>
      </trkpt>
      <trkpt lat="45.789138" lon="5.175185">
        <ele>214.1</ele>
      </trkpt>
      <trkpt lat="45.789313" lon="5.175099">
        <ele>214.3</ele>
      </trkpt>
      <trkpt lat="45.789433" lon="5.175044">
        <ele>214.8</ele>
      </trkpt>
      <trkpt lat="45.789564" lon="5.175074">
        <ele>215.1</ele>
      </trkpt>
      <trkpt lat="45.789692" lon="5.175190">
        <ele>215.3</ele>
      </trkpt>
      <trkpt lat="45.789884" lon="5.175453">
        <ele>215.4</ele>
      </trkpt>
      <trkpt lat="45.789977" lon="5.175551">
        <ele>215.3</ele>
      </trkpt>
      <trkpt lat="45.790230" lon="5.175748">
        <ele>215.1</ele>
      </trkpt>
      <trkpt lat="45.790426" lon="5.175773">
        <ele>214.6</ele>
      </trkpt>
      <trkpt lat="45.790672" lon="5.175706">
        <ele>214.0</ele>
      </trkpt>
      <trkpt lat="45.790924" lon="5.175605">
        <ele>213.3</ele>
      </trkpt>
      <trkpt lat="45.791104" lon="5.175518">
        <ele>212.9</ele>
      </trkpt>
      <trkpt lat="45.791255" lon="5.175414">
        <ele>212.5</ele>
      </trkpt>
      <trkpt lat="45.791340" lon="5.175323">
        <ele>212.4</ele>
      </trkpt>
      <trkpt lat="45.791373" lon="5.175154">
        <ele>212.3</ele>
      </trkpt>
      <trkpt lat="45.791343" lon="5.174897">
        <ele>211.8</ele>
      </trkpt>
      <trkpt lat="45.791313" lon="5.174564">
        <ele>211.3</ele>
      </trkpt>
      <trkpt lat="45.791318" lon="5.174343">
        <ele>210.4</ele>
      </trkpt>
      <trkpt lat="45.791332" lon="5.174190">
        <ele>209.5</ele>
      </trkpt>
      <trkpt lat="45.791401" lon="5.174048">
        <ele>208.6</ele>
      </trkpt>
      <trkpt lat="45.791552" lon="5.173952">
        <ele>208.1</ele>
      </trkpt>
      <trkpt lat="45.791726" lon="5.173882">
        <ele>207.4</ele>
      </trkpt>
      <trkpt lat="45.791804" lon="5.173851">
        <ele>206.2</ele>
      </trkpt>
      <trkpt lat="45.791920" lon="5.173711">
        <ele>204.9</ele>
      </trkpt>
      <trkpt lat="45.792026" lon="5.173442">
        <ele>203.7</ele>
      </trkpt>
      <trkpt lat="45.792058" lon="5.173333">
        <ele>202.6</ele>
      </trkpt>
      <trkpt lat="45.792014" lon="5.173265">
        <ele>201.6</ele>
      </trkpt>
      <trkpt lat="45.791839" lon="5.172927">
        <ele>201.4</ele>
      </trkpt>
      <trkpt lat="45.790900" lon="5.170975">
        <ele>201.5</ele>
      </trkpt>
      <trkpt lat="45.790679" lon="5.170461">
        <ele>201.7</ele>
      </trkpt>
      <trkpt lat="45.790470" lon="5.169725">
        <ele>202.1</ele>
      </trkpt>
      <trkpt lat="45.790529" lon="5.169590">
        <ele>202.8</ele>
      </trkpt>
      <trkpt lat="45.790703" lon="5.169502">
        <ele>204.2</ele>
      </trkpt>
      <trkpt lat="45.791165" lon="5.169229">
        <ele>205.3</ele>
      </trkpt>
      <trkpt lat="45.791616" lon="5.168157">
        <ele>206.6</ele>
      </trkpt>
      <trkpt lat="45.791509" lon="5.167683">
        <ele>207.0</ele>
      </trkpt>
      <trkpt lat="45.791315" lon="5.166558">
        <ele>207.4</ele>
      </trkpt>
      <trkpt lat="45.791717" lon="5.165681">
        <ele>207.1</ele>
      </trkpt>
      <trkpt lat="45.792053" lon="5.165364">
        <ele>206.7</ele>
      </trkpt>
      <trkpt lat="45.792195" lon="5.165014">
        <ele>205.8</ele>
      </trkpt>
      <trkpt lat="45.791889" lon="5.163161">
        <ele>205.3</ele>
      </trkpt>
      <trkpt lat="45.792923" lon="5.162404">
        <ele>204.6</ele>
      </trkpt>
      <trkpt lat="45.793371" lon="5.162144">
        <ele>204.0</ele>
      </trkpt>
      <trkpt lat="45.793597" lon="5.162006">
        <ele>203.5</ele>
      </trkpt>
      <trkpt lat="45.793617" lon="5.161939">
        <ele>203.2</ele>
      </trkpt>
      <trkpt lat="45.793711" lon="5.161355">
        <ele>203.1</ele>
      </trkpt>
      <trkpt lat="45.793777" lon="5.161000">
        <ele>203.1</ele>
      </trkpt>
      <trkpt lat="45.793936" lon="5.160188">
        <ele>203.5</ele>
      </trkpt>
      <trkpt lat="45.793966" lon="5.159866">
        <ele>204.1</ele>
      </trkpt>
      <trkpt lat="45.793975" lon="5.159389">
        <ele>204.9</ele>
      </trkpt>
      <trkpt lat="45.793910" lon="5.159046">
        <ele>206.4</ele>
      </trkpt>
      <trkpt lat="45.793857" lon="5.158686">
        <ele>209.0</ele>
      </trkpt>
      <trkpt lat="45.793863" lon="5.158380">
        <ele>210.8</ele>
      </trkpt>
      <trkpt lat="45.793848" lon="5.157919">
        <ele>213.8</ele>
      </trkpt>
      <trkpt lat="45.793823" lon="5.157356">
        <ele>216.2</ele>
      </trkpt>
      <trkpt lat="45.793803" lon="5.157151">
        <ele>219.0</ele>
      </trkpt>
      <trkpt lat="45.793826" lon="5.156606">
        <ele>218.7</ele>
      </trkpt>
      <trkpt lat="45.793979" lon="5.156050">
        <ele>219.1</ele>
      </trkpt>
      <trkpt lat="45.794111" lon="5.155374">
        <ele>217.6</ele>
      </trkpt>
      <trkpt lat="45.794226" lon="5.155004">
        <ele>216.6</ele>
      </trkpt>
      <trkpt lat="45.794270" lon="5.154545">
        <ele>214.1</ele>
      </trkpt>
      <trkpt lat="45.794282" lon="5.154563">
        <ele>213.1</ele>
      </trkpt>
      <trkpt lat="45.794264" lon="5.154254">
        <ele>211.8</ele>
      </trkpt>
      <trkpt lat="45.794344" lon="5.154087">
        <ele>211.1</ele>
      </trkpt>
      <trkpt lat="45.794580" lon="5.153619">
        <ele>210.0</ele>
      </trkpt>
      <trkpt lat="45.794684" lon="5.153435">
        <ele>209.3</ele>
      </trkpt>
      <trkpt lat="45.794697" lon="5.153112">
        <ele>209.9</ele>
      </trkpt>
      <trkpt lat="45.794636" lon="5.152556">
        <ele>210.6</ele>
      </trkpt>
      <trkpt lat="45.794547" lon="5.151871">
        <ele>211.4</ele>
      </trkpt>
      <trkpt lat="45.794521" lon="5.151402">
        <ele>212.9</ele>
      </trkpt>
      <trkpt lat="45.794531" lon="5.150874">
        <ele>215.0</ele>
      </trkpt>
      <trkpt lat="45.794498" lon="5.150421">
        <ele>217.2</ele>
      </trkpt>
      <trkpt lat="45.794410" lon="5.150000">
        <ele>219.0</ele>
      </trkpt>
      <trkpt lat="45.794326" lon="5.149742">
        <ele>220.4</ele>
      </trkpt>
      <trkpt lat="45.794253" lon="5.149509">
        <ele>221.5</ele>
      </trkpt>
      <trkpt lat="45.794178" lon="5.149352">
        <ele>222.1</ele>
      </trkpt>
      <trkpt lat="45.794067" lon="5.149237">
        <ele>221.7</ele>
      </trkpt>
      <trkpt lat="45.793876" lon="5.149281">
        <ele>221.6</ele>
      </trkpt>
      <trkpt lat="45.793662" lon="5.149264">
        <ele>221.4</ele>
      </trkpt>
      <trkpt lat="45.793586" lon="5.149193">
        <ele>221.8</ele>
      </trkpt>
      <trkpt lat="45.793500" lon="5.148985">
        <ele>222.0</ele>
      </trkpt>
      <trkpt lat="45.793377" lon="5.148580">
        <ele>223.0</ele>
      </trkpt>
      <trkpt lat="45.793200" lon="5.147858">
        <ele>225.3</ele>
      </trkpt>
      <trkpt lat="45.793070" lon="5.147154">
        <ele>227.4</ele>
      </trkpt>
      <trkpt lat="45.792871" lon="5.146031">
        <ele>229.1</ele>
      </trkpt>
      <trkpt lat="45.792854" lon="5.145681">
        <ele>231.2</ele>
      </trkpt>
      <trkpt lat="45.792940" lon="5.145250">
        <ele>232.4</ele>
      </trkpt>
      <trkpt lat="45.793013" lon="5.144844">
        <ele>232.4</ele>
      </trkpt>
      <trkpt lat="45.793023" lon="5.144810">
        <ele>232.8</ele>
      </trkpt>
      <trkpt lat="45.793028" lon="5.144794">
        <ele>232.5</ele>
      </trkpt>
      <trkpt lat="45.793028" lon="5.144794">
        <ele>231.9</ele>
      </trkpt>
      <trkpt lat="45.793068" lon="5.144667">
        <ele>231.2</ele>
      </trkpt>
      <trkpt lat="45.793068" lon="5.144666">
        <ele>230.6</ele>
      </trkpt>
      <trkpt lat="45.793127" lon="5.144476">
        <ele>229.4</ele>
      </trkpt>
      <trkpt lat="45.793127" lon="5.144476">
        <ele>229.3</ele>
      </trkpt>
      <trkpt lat="45.793178" lon="5.144314">
        <ele>228.8</ele>
      </trkpt>
      <trkpt lat="45.793274" lon="5.143960">
        <ele>228.3</ele>
      </trkpt>
      <trkpt lat="45.793318" lon="5.143535">
        <ele>227.9</ele>
      </trkpt>
      <trkpt lat="45.793375" lon="5.143009">
        <ele>228.0</ele>
      </trkpt>
      <trkpt lat="45.793406" lon="5.142857">
        <ele>227.6</ele>
      </trkpt>
      <trkpt lat="45.793421" lon="5.142781">
        <ele>227.4</ele>
      </trkpt>
      <trkpt lat="45.793512" lon="5.142401">
        <ele>227.2</ele>
      </trkpt>
      <trkpt lat="45.793579" lon="5.142021">
        <ele>227.0</ele>
      </trkpt>
      <trkpt lat="45.793573" lon="5.141680">
        <ele>226.8</ele>
      </trkpt>
      <trkpt lat="45.793586" lon="5.141340">
        <ele>226.5</ele>
      </trkpt>
      <trkpt lat="45.793579" lon="5.141058">
        <ele>226.2</ele>
      </trkpt>
      <trkpt lat="45.793614" lon="5.140796">
        <ele>225.6</ele>
      </trkpt>
      <trkpt lat="45.793907" lon="5.139810">
        <ele>224.7</ele>
      </trkpt>
      <trkpt lat="45.794115" lon="5.138890">
        <ele>223.5</ele>
      </trkpt>
      <trkpt lat="45.794299" lon="5.137986">
        <ele>222.4</ele>
      </trkpt>
      <trkpt lat="45.794416" lon="5.137487">
        <ele>221.3</ele>
      </trkpt>
      <trkpt lat="45.794518" lon="5.137125">
        <ele>220.7</ele>
      </trkpt>
      <trkpt lat="45.794578" lon="5.136795">
        <ele>220.2</ele>
      </trkpt>
      <trkpt lat="45.794571" lon="5.136514">
        <ele>219.2</ele>
      </trkpt>
      <trkpt lat="45.794582" lon="5.136259">
        <ele>217.7</ele>
      </trkpt>
      <trkpt lat="45.794587" lon="5.132344">
        <ele>216.5</ele>
      </trkpt>
      <trkpt lat="45.794568" lon="5.130630">
        <ele>214.9</ele>
      </trkpt>
      <trkpt lat="45.794606" lon="5.130271">
        <ele>213.2</ele>
      </trkpt>
      <trkpt lat="45.794598" lon="5.129967">
        <ele>212.2</ele>
      </trkpt>
      <trkpt lat="45.794552" lon="5.129352">
        <ele>211.6</ele>
      </trkpt>
      <trkpt lat="45.794516" lon="5.128853">
        <ele>210.9</ele>
      </trkpt>
      <trkpt lat="45.794476" lon="5.128351">
        <ele>210.5</ele>
      </trkpt>
      <trkpt lat="45.794435" lon="5.127961">
        <ele>210.1</ele>
      </trkpt>
      <trkpt lat="45.794355" lon="5.127515">
        <ele>210.0</ele>
      </trkpt>
      <trkpt lat="45.794310" lon="5.127268">
        <ele>209.9</ele>
      </trkpt>
      <trkpt lat="45.794229" lon="5.126747">
        <ele>209.7</ele>
      </trkpt>
      <trkpt lat="45.794154" lon="5.126331">
        <ele>209.5</ele>
      </trkpt>
      <trkpt lat="45.794131" lon="5.126136">
        <ele>209.5</ele>
      </trkpt>
      <trkpt lat="45.794151" lon="5.125974">
        <ele>209.2</ele>
      </trkpt>
      <trkpt lat="45.794030" lon="5.125914">
        <ele>209.4</ele>
      </trkpt>
      <trkpt lat="45.793977" lon="5.126042">
        <ele>209.6</ele>
      </trkpt>
      <trkpt lat="45.793792" lon="5.126026">
        <ele>209.8</ele>
      </trkpt>
      <trkpt lat="45.793512" lon="5.126066">
        <ele>210.1</ele>
      </trkpt>
      <trkpt lat="45.793112" lon="5.126111">
        <ele>210.3</ele>
      </trkpt>
      <trkpt lat="45.792729" lon="5.126164">
        <ele>210.4</ele>
      </trkpt>
      <trkpt lat="45.792197" lon="5.126280">
        <ele>210.4</ele>
      </trkpt>
      <trkpt lat="45.791646" lon="5.126395">
        <ele>210.4</ele>
      </trkpt>
      <trkpt lat="45.791264" lon="5.126465">
        <ele>210.8</ele>
      </trkpt>
      <trkpt lat="45.791113" lon="5.126536">
        <ele>211.2</ele>
      </trkpt>
      <trkpt lat="45.790663" lon="5.126723">
        <ele>211.6</ele>
      </trkpt>
      <trkpt lat="45.790020" lon="5.127031">
        <ele>212.4</ele>
      </trkpt>
      <trkpt lat="45.789670" lon="5.127230">
        <ele>213.0</ele>
      </trkpt>
      <trkpt lat="45.789291" lon="5.127429">
        <ele>213.4</ele>
      </trkpt>
      <trkpt lat="45.789003" lon="5.127562">
        <ele>213.8</ele>
      </trkpt>
      <trkpt lat="45.788805" lon="5.127631">
        <ele>214.2</ele>
      </trkpt>
      <trkpt lat="45.788637" lon="5.127650">
        <ele>214.2</ele>
      </trkpt>
      <trkpt lat="45.788363" lon="5.127657">
        <ele>214.3</ele>
      </trkpt>
      <trkpt lat="45.788112" lon="5.127732">
        <ele>214.5</ele>
      </trkpt>
      <trkpt lat="45.787704" lon="5.127861">
        <ele>214.6</ele>
      </trkpt>
      <trkpt lat="45.787434" lon="5.127945">
        <ele>215.1</ele>
      </trkpt>
      <trkpt lat="45.787219" lon="5.127979">
        <ele>215.9</ele>
      </trkpt>
      <trkpt lat="45.786183" lon="5.127922">
        <ele>216.7</ele>
      </trkpt>
      <trkpt lat="45.785380" lon="5.127874">
        <ele>217.4</ele>
      </trkpt>
      <trkpt lat="45.784374" lon="5.127827">
        <ele>218.5</ele>
      </trkpt>
      <trkpt lat="45.784040" lon="5.127805">
        <ele>219.2</ele>
      </trkpt>
      <trkpt lat="45.783805" lon="5.126014">
        <ele>221.1</ele>
      </trkpt>
      <trkpt lat="45.783363" lon="5.125327">
        <ele>223.1</ele>
      </trkpt>
      <trkpt lat="45.783000" lon="5.122982">
        <ele>225.1</ele>
      </trkpt>
      <trkpt lat="45.783092" lon="5.120236">
        <ele>227.7</ele>
      </trkpt>
      <trkpt lat="45.782738" lon="5.120279">
        <ele>229.0</ele>
      </trkpt>
      <trkpt lat="45.781692" lon="5.120421">
        <ele>229.3</ele>
      </trkpt>
      <trkpt lat="45.781154" lon="5.120487">
        <ele>229.5</ele>
      </trkpt>
      <trkpt lat="45.779759" lon="5.120657">
        <ele>230.0</ele>
      </trkpt>
      <trkpt lat="45.779681" lon="5.120653">
        <ele>229.6</ele>
      </trkpt>
      <trkpt lat="45.778987" lon="5.120368">
        <ele>230.7</ele>
      </trkpt>
      <trkpt lat="45.778908" lon="5.120339">
        <ele>231.3</ele>
      </trkpt>
      <trkpt lat="45.778714" lon="5.120320">
        <ele>232.0</ele>
      </trkpt>
      <trkpt lat="45.778603" lon="5.120233">
        <ele>233.0</ele>
      </trkpt>
      <trkpt lat="45.778461" lon="5.120145">
        <ele>233.6</ele>
      </trkpt>
      <trkpt lat="45.778194" lon="5.120040">
        <ele>234.2</ele>
      </trkpt>
      <trkpt lat="45.777985" lon="5.119949">
        <ele>234.9</ele>
      </trkpt>
      <trkpt lat="45.777753" lon="5.119854">
        <ele>235.4</ele>
      </trkpt>
      <trkpt lat="45.777586" lon="5.119732">
        <ele>235.2</ele>
      </trkpt>
      <trkpt lat="45.777449" lon="5.119575">
        <ele>235.3</ele>
      </trkpt>
      <trkpt lat="45.777687" lon="5.118704">
        <ele>235.3</ele>
      </trkpt>
      <trkpt lat="45.777624" lon="5.118602">
        <ele>234.9</ele>
      </trkpt>
      <trkpt lat="45.777742" lon="5.118201">
        <ele>234.4</ele>
      </trkpt>
      <trkpt lat="45.777820" lon="5.117571">
        <ele>234.2</ele>
      </trkpt>
      <trkpt lat="45.777880" lon="5.117133">
        <ele>233.8</ele>
      </trkpt>
      <trkpt lat="45.778012" lon="5.116913">
        <ele>233.1</ele>
      </trkpt>
      <trkpt lat="45.778247" lon="5.116759">
        <ele>231.9</ele>
      </trkpt>
      <trkpt lat="45.778414" lon="5.115608">
        <ele>230.9</ele>
      </trkpt>
      <trkpt lat="45.778595" lon="5.113821">
        <ele>229.8</ele>
      </trkpt>
      <trkpt lat="45.778952" lon="5.111915">
        <ele>228.6</ele>
      </trkpt>
      <trkpt lat="45.779500" lon="5.110169">
        <ele>227.5</ele>
      </trkpt>
      <trkpt lat="45.779747" lon="5.108982">
        <ele>227.3</ele>
      </trkpt>
      <trkpt lat="45.780088" lon="5.108121">
        <ele>226.2</ele>
      </trkpt>
      <trkpt lat="45.780577" lon="5.106855">
        <ele>224.8</ele>
      </trkpt>
      <trkpt lat="45.780286" lon="5.106689">
        <ele>222.9</ele>
      </trkpt>
      <trkpt lat="45.781025" lon="5.104845">
        <ele>222.0</ele>
      </trkpt>
      <trkpt lat="45.781560" lon="5.103150">
        <ele>221.1</ele>
      </trkpt>
      <trkpt lat="45.782315" lon="5.099703">
        <ele>220.4</ele>
      </trkpt>
      <trkpt lat="45.782754" lon="5.097431">
        <ele>220.0</ele>
      </trkpt>
      <trkpt lat="45.784273" lon="5.090986">
        <ele>220.3</ele>
      </trkpt>
      <trkpt lat="45.784250" lon="5.089460">
        <ele>219.9</ele>
      </trkpt>
      <trkpt lat="45.784331" lon="5.089340">
        <ele>219.2</ele>
      </trkpt>
      <trkpt lat="45.784557" lon="5.089203">
        <ele>219.2</ele>
      </trkpt>
      <trkpt lat="45.784557" lon="5.089203">
        <ele>217.7</ele>
      </trkpt>
      <trkpt lat="45.784564" lon="5.089198">
        <ele>216.3</ele>
      </trkpt>
      <trkpt lat="45.787129" lon="5.088776">
        <ele>214.2</ele>
      </trkpt>
      <trkpt lat="45.787323" lon="5.088853">
        <ele>211.8</ele>
      </trkpt>
      <trkpt lat="45.787948" lon="5.090026">
        <ele>209.2</ele>
      </trkpt>
      <trkpt lat="45.788866" lon="5.090899">
        <ele>208.1</ele>
      </trkpt>
      <trkpt lat="45.789127" lon="5.091098">
        <ele>207.2</ele>
      </trkpt>
      <trkpt lat="45.790311" lon="5.090628">
        <ele>207.2</ele>
      </trkpt>
      <trkpt lat="45.791174" lon="5.090174">
        <ele>208.6</ele>
      </trkpt>
      <trkpt lat="45.791340" lon="5.089926">
        <ele>210.4</ele>
      </trkpt>
      <trkpt lat="45.792165" lon="5.087903">
        <ele>212.4</ele>
      </trkpt>
      <trkpt lat="45.792604" lon="5.087499">
        <ele>214.0</ele>
      </trkpt>
      <trkpt lat="45.792708" lon="5.087174">
        <ele>215.2</ele>
      </trkpt>
      <trkpt lat="45.793230" lon="5.086102">
        <ele>215.0</ele>
      </trkpt>
      <trkpt lat="45.794158" lon="5.084914">
        <ele>214.3</ele>
      </trkpt>
      <trkpt lat="45.794986" lon="5.084242">
        <ele>213.7</ele>
      </trkpt>
      <trkpt lat="45.795822" lon="5.084645">
        <ele>212.8</ele>
      </trkpt>
      <trkpt lat="45.796357" lon="5.084810">
        <ele>212.4</ele>
      </trkpt>
      <trkpt lat="45.797022" lon="5.084825">
        <ele>211.4</ele>
      </trkpt>
      <trkpt lat="45.797861" lon="5.085102">
        <ele>209.4</ele>
      </trkpt>
      <trkpt lat="45.798347" lon="5.085089">
        <ele>207.4</ele>
      </trkpt>
      <trkpt lat="45.799678" lon="5.084639">
        <ele>205.8</ele>
      </trkpt>
      <trkpt lat="45.800887" lon="5.084245">
        <ele>204.6</ele>
      </trkpt>
      <trkpt lat="45.801105" lon="5.084038">
        <ele>204.0</ele>
      </trkpt>
      <trkpt lat="45.801691" lon="5.083682">
        <ele>205.1</ele>
      </trkpt>
      <trkpt lat="45.801947" lon="5.083344">
        <ele>206.7</ele>
      </trkpt>
      <trkpt lat="45.802553" lon="5.082283">
        <ele>208.4</ele>
      </trkpt>
      <trkpt lat="45.803651" lon="5.080904">
        <ele>209.1</ele>
      </trkpt>
      <trkpt lat="45.803852" lon="5.080790">
        <ele>210.8</ele>
      </trkpt>
      <trkpt lat="45.804343" lon="5.080623">
        <ele>211.8</ele>
      </trkpt>
      <trkpt lat="45.805415" lon="5.079865">
        <ele>211.4</ele>
      </trkpt>
      <trkpt lat="45.805888" lon="5.079393">
        <ele>210.8</ele>
      </trkpt>
      <trkpt lat="45.806257" lon="5.079172">
        <ele>211.2</ele>
      </trkpt>
      <trkpt lat="45.806416" lon="5.079227">
        <ele>208.9</ele>
      </trkpt>
      <trkpt lat="45.806861" lon="5.078617">
        <ele>211.4</ele>
      </trkpt>
      <trkpt lat="45.809738" lon="5.077933">
        <ele>202.0</ele>
      </trkpt>
    </trkseg>
  </trk>
</gpx>
